County,City,ZIP
Fairfield,Bethel,06801
Fairfield,Bridgeport,06601
Fairfield,Bridgeport,06602
Fairfield,Bridgeport,06604
Fairfield,Bridgeport,06605
Fairfield,Bridgeport,06606
Fairfield,Bridgeport,06607
Fairfield,Bridgeport,06608
Fairfield,Bridgeport,06610
Fairfield,Bridgeport,06650
Fairfield,Bridgeport,06673
Fairfield,Bridgeport,06699
Fairfield,Brookfield,06804
Fairfield,Danbury,06810
Fairfield,Danbury,06811
Fairfield,Danbury,06812
Fairfield,Danbury,06813
Fairfield,Danbury,06814
Fairfield,Danbury,06816
Fairfield,Danbury,06817
Fairfield,Darien,06820
Fairfield,Easton,06612
Fairfield,Fairfield,06430
Fairfield,Fairfield,06824
Fairfield,Fairfield,06825
Fairfield,Fairfield,06828
Fairfield,Fairfield,06890
Fairfield,Greenwich,06807
Fairfield,Greenwich,06830
Fairfield,Greenwich,06831
Fairfield,Greenwich,06836
Fairfield,Greenwich,06870
Fairfield,Greenwich,06878
Fairfield,Monroe,06468
Fairfield,Monroe,06491
Fairfield,New Canaan,06840
Fairfield,New Fairfield,06812
Fairfield,Newtown,06404
Fairfield,Newtown,06440
Fairfield,Newtown,06470
Fairfield,Newtown,06482
Fairfield,Norwalk,06850
Fairfield,Norwalk,06851
Fairfield,Norwalk,06852
Fairfield,Norwalk,06853
Fairfield,Norwalk,06854
Fairfield,Norwalk,06855
Fairfield,Norwalk,06856
Fairfield,Norwalk,06857
Fairfield,Norwalk,06858
Fairfield,Norwalk,06859
Fairfield,Norwalk,06860
Fairfield,Redding,06829
Fairfield,Redding,06875
Fairfield,Redding,06876
Fairfield,Redding,06896
Fairfield,Ridgefield,06877
Fairfield,Ridgefield,06879
Fairfield,Shelton,06484
Fairfield,Sherman,06784
Fairfield,Stamford,06901
Fairfield,Stamford,06902
Fairfield,Stamford,06903
Fairfield,Stamford,06904
Fairfield,Stamford,06905
Fairfield,Stamford,06906
Fairfield,Stamford,06907
Fairfield,Stamford,06910
Fairfield,Stamford,06911
Fairfield,Stamford,06912
Fairfield,Stamford,06913
Fairfield,Stamford,06914
Fairfield,Stamford,06920
Fairfield,Stamford,06921
Fairfield,Stamford,06922
Fairfield,Stamford,06925
Fairfield,Stamford,06926
Fairfield,Stamford,06927
Fairfield,Stamford,06928
Fairfield,Stratford,06614
Fairfield,Stratford,06615
Fairfield,Trumbull,06611
Fairfield,Weston,06883
Fairfield,Westport,06838
Fairfield,Westport,06880
Fairfield,Westport,06881
Fairfield,Westport,06888
Fairfield,Westport,06889
Fairfield,Wilton,06897
Hartford,Avon,06001
Hartford,Berlin,06023
Hartford,Berlin,06037
Hartford,Bloomfield,06002
Hartford,Bristol,06010
Hartford,Bristol,06011
Hartford,Burlington,06013
Hartford,Canton,06019
Hartford,Canton,06020
Hartford,Canton,06022
Hartford,Canton,06059
Hartford,East Granby,06026
Hartford,East Hartford,06108
Hartford,East Hartford,06118
Hartford,East Hartford,06128
Hartford,East Hartford,06138
Hartford,East Windsor,06016
Hartford,East Windsor,06028
Hartford,East Windsor,06049
Hartford,East Windsor,06088
Hartford,East Windsor,06096
Hartford,Enfield,06082
Hartford,Enfield,06083
Hartford,Farmington,06030
Hartford,Farmington,06032
Hartford,Farmington,06034
Hartford,Farmington,06085
Hartford,Farmington,06087
Hartford,Glastonbury,06025
Hartford,Glastonbury,06033
Hartford,Glastonbury,06073
Hartford,Granby,06035
Hartford,Granby,06060
Hartford,Granby,06090
Hartford,Hartford,06101
Hartford,Hartford,06102
Hartford,Hartford,06103
Hartford,Hartford,06104
Hartford,Hartford,06105
Hartford,Hartford,06106
Hartford,Hartford,06107
Hartford,Hartford,06109
Hartford,Hartford,06112
Hartford,Hartford,06114
Hartford,Hartford,06115
Hartford,Hartford,06117
Hartford,Hartford,06118
Hartford,Hartford,06119
Hartford,Hartford,06120
Hartford,Hartford,06123
Hartford,Hartford,06126
Hartford,Hartford,06127
Hartford,Hartford,06128
Hartford,Hartford,06129
Hartford,Hartford,06131
Hartford,Hartford,06132
Hartford,Hartford,06133
Hartford,Hartford,06134
Hartford,Hartford,06138
Hartford,Hartford,06140
Hartford,Hartford,06141
Hartford,Hartford,06142
Hartford,Hartford,06143
Hartford,Hartford,06144
Hartford,Hartford,06145
Hartford,Hartford,06146
Hartford,Hartford,06147
Hartford,Hartford,06150
Hartford,Hartford,06151
Hartford,Hartford,06152
Hartford,Hartford,06153
Hartford,Hartford,06154
Hartford,Hartford,06155
Hartford,Hartford,06156
Hartford,Hartford,06160
Hartford,Hartford,06161
Hartford,Hartford,06167
Hartford,Hartford,06176
Hartford,Hartford,06180
Hartford,Hartford,06183
Hartford,Hartford,06199
Hartford,Hartland,06027
Hartford,Hartland,06091
Hartford,Manchester,06040
Hartford,Manchester,06041
Hartford,Manchester,06042
Hartford,Manchester,06045
Hartford,Marlborough,06447
Hartford,New Britain,06050
Hartford,New Britain,06051
Hartford,New Britain,06052
Hartford,New Britain,06053
Hartford,Newington,06111
Hartford,Newington,06131
Hartford,Plainville,06062
Hartford,Rocky Hill,06067
Hartford,Simsbury,06070
Hartford,Simsbury,06081
Hartford,Simsbury,06089
Hartford,Simsbury,06092
Hartford,South Windsor,06074
Hartford,Southington,06444
Hartford,Southington,06467
Hartford,Southington,06479
Hartford,Southington,06489
Hartford,Suffield,06078
Hartford,Suffield,06080
Hartford,Suffield,06093
Hartford,West Hartford,06105
Hartford,West Hartford,06106
Hartford,West Hartford,06107
Hartford,West Hartford,06110
Hartford,West Hartford,06117
Hartford,West Hartford,06119
Hartford,West Hartford,06127
Hartford,West Hartford,06133
Hartford,West Hartford,06137
Hartford,Wethersfield,06109
Hartford,Wethersfield,06129
Hartford,Wethersfield,06161
Hartford,Windsor,06064
Hartford,Windsor,06095
Hartford,Windsor Locks,06096
Litchfield,Barkhamsted,06063
Litchfield,Barkhamsted,06065
Litchfield,Bethlehem,06751
Litchfield,Bridgewater,06752
Litchfield,Canaan,06031
Litchfield,Colebrook,06021
Litchfield,Cornwall,06753
Litchfield,Cornwall,06754
Litchfield,Cornwall,06796
Litchfield,Goshen,06756
Litchfield,Harwinton,06791
Litchfield,Harwinton,06792
Litchfield,Kent,06757
Litchfield,Kent,06785
Litchfield,Litchfield,06750
Litchfield,Litchfield,06759
Litchfield,Litchfield,06778
Litchfield,Morris,06758
Litchfield,Morris,06763
Litchfield,New Hartford,06057
Litchfield,New Hartford,06061
Litchfield,New Milford,06755
Litchfield,New Milford,06776
Litchfield,Norfolk,06058
Litchfield,North Canaan,06018
Litchfield,North Canaan,06024
Litchfield,Plymouth,06781
Litchfield,Plymouth,06782
Litchfield,Plymouth,06786
Litchfield,Roxbury,06783
Litchfield,Salisbury,06039
Litchfield,Salisbury,06068
Litchfield,Salisbury,06079
Litchfield,Sharon,06069
Litchfield,Thomaston,06787
Litchfield,Torrington,06790
Litchfield,Torrington,06791
Litchfield,Torrington,06792
Litchfield,Warren,06278
Litchfield,Warren,06754
Litchfield,Warren,06777
Litchfield,Washington,06777
Litchfield,Washington,06793
Litchfield,Washington,06794
Litchfield,Watertown,06779
Litchfield,Watertown,06795
Litchfield,Winchester,06063
Litchfield,Winchester,06094
Litchfield,Winchester,06098
Litchfield,Woodbury,06798
Middlesex,Chester,06412
Middlesex,Clinton,06413
Middlesex,Cromwell,06416
Middlesex,Deep River,06417
Middlesex,Deep River,06419
Middlesex,Durham,06422
Middlesex,East Haddam,06423
Middlesex,East Haddam,06469
Middlesex,East Hampton,06414
Middlesex,East Hampton,06424
Middlesex,East Hampton,06456
Middlesex,Essex,06409
Middlesex,Essex,06426
Middlesex,Essex,06442
Middlesex,Haddam,06424
Middlesex,Haddam,06438
Middlesex,Haddam,06441
Middlesex,Killingworth,06419
Middlesex,Middlefield,06455
Middlesex,Middlefield,06481
Middlesex,Middletown,06457
Middlesex,Middletown,06459
Middlesex,Old Saybrook,06475
Middlesex,Portland,06480
Middlesex,Westbrook,06498
New Haven,Ansonia,06401
New Haven,Beacon Falls,06403
New Haven,Bethany,06524
New Haven,Branford,06405
New Haven,Cheshire,06408
New Haven,Cheshire,06410
New Haven,Cheshire,06411
New Haven,Derby,06418
New Haven,East Haven,06512
New Haven,East Haven,06513
New Haven,Guilford,06437
New Haven,Hamden,06511
New Haven,Hamden,06514
New Haven,Hamden,06517
New Haven,Hamden,06518
New Haven,Madison,06443
New Haven,Meriden,06450
New Haven,Meriden,06451
New Haven,Middlebury,06762
New Haven,Milford,06460
New Haven,Milford,06461
New Haven,Naugatuck,06770
New Haven,New Haven,06501
New Haven,New Haven,06502
New Haven,New Haven,06503
New Haven,New Haven,06504
New Haven,New Haven,06505
New Haven,New Haven,06506
New Haven,New Haven,06507
New Haven,New Haven,06508
New Haven,New Haven,06509
New Haven,New Haven,06510
New Haven,New Haven,06511
New Haven,New Haven,06512
New Haven,New Haven,06513
New Haven,New Haven,06514
New Haven,New Haven,06515
New Haven,New Haven,06516
New Haven,New Haven,06517
New Haven,New Haven,06518
New Haven,New Haven,06519
New Haven,New Haven,06520
New Haven,New Haven,06521
New Haven,New Haven,06524
New Haven,New Haven,06525
New Haven,New Haven,06530
New Haven,New Haven,06531
New Haven,New Haven,06532
New Haven,New Haven,06533
New Haven,New Haven,06534
New Haven,New Haven,06535
New Haven,New Haven,06536
New Haven,New Haven,06537
New Haven,New Haven,06538
New Haven,New Haven,06540
New Haven,North Branford,06471
New Haven,North Branford,06472
New Haven,North Haven,06473
New Haven,North Haven,06501
New Haven,North Haven,06502
New Haven,North Haven,06503
New Haven,North Haven,06504
New Haven,North Haven,06505
New Haven,North Haven,06506
New Haven,North Haven,06507
New Haven,North Haven,06508
New Haven,North Haven,06509
New Haven,North Haven,06510
New Haven,North Haven,06512
New Haven,North Haven,06513
New Haven,North Haven,06514
New Haven,North Haven,06515
New Haven,North Haven,06516
New Haven,North Haven,06518
New Haven,North Haven,06519
New Haven,North Haven,06520
New Haven,North Haven,06521
New Haven,North Haven,06525
New Haven,North Haven,06530
New Haven,North Haven,06531
New Haven,North Haven,06532
New Haven,North Haven,06533
New Haven,North Haven,06534
New Haven,North Haven,06535
New Haven,North Haven,06536
New Haven,North Haven,06537
New Haven,North Haven,06538
New Haven,Orange,06477
New Haven,Oxford,06478
New Haven,Prospect,06712
New Haven,Seymour,06478
New Haven,Seymour,06483
New Haven,Southbury,06487
New Haven,Southbury,06488
New Haven,Wallingford,06492
New Haven,Wallingford,06493
New Haven,Wallingford,06494
New Haven,Wallingford,06495
New Haven,Waterbury,06701
New Haven,Waterbury,06702
New Haven,Waterbury,06703
New Haven,Waterbury,06704
New Haven,Waterbury,06705
New Haven,Waterbury,06706
New Haven,Waterbury,06708
New Haven,Waterbury,06710
New Haven,Waterbury,06712
New Haven,Waterbury,06716
New Haven,Waterbury,06720
New Haven,Waterbury,06721
New Haven,Waterbury,06722
New Haven,Waterbury,06723
New Haven,Waterbury,06724
New Haven,Waterbury,06725
New Haven,Waterbury,06726
New Haven,Waterbury,06749
New Haven,West Haven,06516
New Haven,Wolcott,06705
New Haven,Wolcott,06716
New Haven,Woodbridge,06525
New London,Bozrah,06334
New London,Bozrah,06336
New London,Colchester,06415
New London,Colchester,06420
New London,Colchester,06474
New London,East Lyme,06333
New London,East Lyme,06357
New London,Franklin,06254
New London,Griswold,06351
New London,Griswold,06384
New London,Groton,06340
New London,Groton,06349
New London,Groton,06355
New London,Groton,06388
New London,Lebanon,06249
New London,Ledyard,06335
New London,Ledyard,06338
New London,Ledyard,06339
New London,Lisbon,06351
New London,Lyme,06371
New London,Lyme,06439
New London,Montville,06353
New London,Montville,06370
New London,Montville,06382
New London,New London,06320
New London,North Stonington,06359
New London,Norwich,06360
New London,Norwich,06365
New London,Norwich,06380
New London,Norwich,06389
New London,Old Lyme,06371
New London,Old Lyme,06376
New London,Preston,06351
New London,Preston,06360
New London,Preston,06365
New London,Salem,06420
New London,Sprague,06330
New London,Sprague,06350
New London,Sprague,06383
New London,Stonington,06355
New London,Stonington,06372
New London,Stonington,06378
New London,Stonington,06379
New London,Stonington,06388
New London,Voluntown,06384
New London,Waterford,06375
New London,Waterford,06385
Tolland,Andover,06232
Tolland,Bolton,06043
Tolland,Columbia,06237
Tolland,Coventry,06238
Tolland,Ellington,06029
Tolland,Hebron,06231
Tolland,Hebron,06248
Tolland,Mansfield,06226
Tolland,Mansfield,06235
Tolland,Mansfield,06250
Tolland,Mansfield,06251
Tolland,Mansfield,06268
Tolland,Mansfield,06269
Tolland,Somers,06071
Tolland,Somers,06072
Tolland,Stafford,06075
Tolland,Stafford,06076
Tolland,Stafford,06077
Tolland,Tolland,06084
Tolland,Union,06076
Tolland,Vernon,06066
Tolland,Vernon,06080
Tolland,Willington,06265
Tolland,Willington,06279
Windham,Ashford,06278
Windham,Brooklyn,06234
Windham,Brooklyn,06239
Windham,Canterbury,06331
Windham,Chaplin,06235
Windham,Eastford,06242
Windham,Hampton,06247
Windham,Killingly,06226
Windham,Killingly,06233
Windham,Killingly,06239
Windham,Killingly,06241
Windham,Killingly,06243
Windham,Killingly,06263
Windham,Plainfield,06332
Windham,Plainfield,06354
Windham,Plainfield,06374
Windham,Plainfield,06387
Windham,Pomfret,06230
Windham,Pomfret,06258
Windham,Pomfret,06259
Windham,Putnam,06260
Windham,Scotland,06264
Windham,Sterling,06373
Windham,Sterling,06377
Windham,Thompson,06245
Windham,Thompson,06246
Windham,Thompson,06255
Windham,Thompson,06262
Windham,Thompson,06277
Windham,Windham,06226
Windham,Windham,06235
Windham,Windham,06256
Windham,Windham,06266
Windham,Windham,06280
Windham,Woodstock,06244
Windham,Woodstock,06267
Windham,Woodstock,06281
Windham,Woodstock,06282
