County,City,ZIP
Barnstable,Barnstable,02630
Barnstable,Barnstable,02634
Barnstable,Bourne,02532
Barnstable,Bourne,02559
Barnstable,Brewster,02631
Barnstable,Chatham,02633
Barnstable,Dennis,02638
Barnstable,Eastham,02642
Barnstable,Falmouth,02540
Barnstable,Falmouth,02541
Barnstable,Falmouth,02543
Barnstable,Harwich,02645
Barnstable,Mashpee,02649
Barnstable,Orleans,02653
Barnstable,Provincetown,02657
Barnstable,Sandwich,02563
Barnstable,Sandwich,02644
Barnstable,Truro,02666
Barnstable,Wellfleet,02667
Barnstable,Yarmouth,02664
Barnstable,Yarmouth,02673
Barnstable,Yarmouth,02675
Berkshire,Adams,01220
Berkshire,Alford,01230
Berkshire,Alford,01266
Berkshire,Becket,01223
Berkshire,Cheshire,01225
Berkshire,Clarksburg,01247
Berkshire,Dalton,01226
Berkshire,Dalton,01227
Berkshire,Egremont,01230
Berkshire,Florida,01247
Berkshire,Great Barrington,01230
Berkshire,Hancock,01237
Berkshire,Hinsdale,01235
Berkshire,Lanesborough,01224
Berkshire,Lanesborough,01237
Berkshire,Lee,01238
Berkshire,Lee,01264
Berkshire,Lenox,01240
Berkshire,Monterey,01245
Berkshire,Mount Washington,01258
Berkshire,New Ashford,01237
Berkshire,New Marlborough,01230
Berkshire,North Adams,01247
Berkshire,Otis,01253
Berkshire,Peru,01235
Berkshire,Pittsfield,01201
Berkshire,Pittsfield,01202
Berkshire,Pittsfield,01203
Berkshire,Richmond,01254
Berkshire,Sandisfield,01255
Berkshire,Savoy,01256
Berkshire,Sheffield,01257
Berkshire,Stockbridge,01262
Berkshire,Stockbridge,01263
Berkshire,Tyringham,01264
Berkshire,Washington,01223
Berkshire,West Stockbridge,01266
Berkshire,Williamstown,01267
Berkshire,Windsor,01270
Bristol,Acushnet,02743
Bristol,Acushnet,02745
Bristol,Attleboro,02703
Bristol,Berkley,02779
Bristol,Dartmouth,02714
Bristol,Dartmouth,02747
Bristol,Dighton,02715
Bristol,Easton,02334
Bristol,Easton,02356
Bristol,Easton,02357
Bristol,Easton,02375
Bristol,Fairhaven,02719
Bristol,Fall River,02720
Bristol,Fall River,02721
Bristol,Fall River,02722
Bristol,Fall River,02723
Bristol,Fall River,02724
Bristol,Fall River,02725
Bristol,Fall River,02726
Bristol,Freetown,02702
Bristol,Mansfield,02048
Bristol,New Bedford,02740
Bristol,New Bedford,02741
Bristol,New Bedford,02742
Bristol,New Bedford,02743
Bristol,New Bedford,02744
Bristol,New Bedford,02745
Bristol,New Bedford,02746
Bristol,North Attleborough,02760
Bristol,North Attleborough,02761
Bristol,North Attleborough,02762
Bristol,North Attleborough,02763
Bristol,Norton,02712
Bristol,Norton,02766
Bristol,Raynham,02767
Bristol,Raynham,02768
Bristol,Rehoboth,02769
Bristol,Seekonk,02771
Bristol,Somerset,02725
Bristol,Somerset,02726
Bristol,Swansea,02777
Bristol,Taunton,02718
Bristol,Taunton,02780
Bristol,Taunton,02783
Bristol,Westport,02790
Dukes,Aquinnah,02535
Dukes,Chilmark,02535
Dukes,Chilmark,02552
Dukes,Edgartown,02539
Dukes,Gosnold,02713
Dukes,Oak Bluffs,02557
Dukes,Tisbury,02568
Dukes,Tisbury,02573
Dukes,Tisbury,02575
Dukes,West Tisbury,02568
Dukes,West Tisbury,02575
Essex,Amesbury,01913
Essex,Andover,01810
Essex,Andover,01812
Essex,Andover,01899
Essex,Andover,05501
Essex,Andover,05544
Essex,Beverly,01915
Essex,Boxford,01921
Essex,Danvers,01923
Essex,Essex,01929
Essex,Georgetown,01833
Essex,Gloucester,01930
Essex,Gloucester,01931
Essex,Groveland,01834
Essex,Hamilton,01936
Essex,Hamilton,01982
Essex,Haverhill,01830
Essex,Haverhill,01831
Essex,Haverhill,01832
Essex,Haverhill,01833
Essex,Haverhill,01835
Essex,Ipswich,01938
Essex,Lawrence,01840
Essex,Lawrence,01841
Essex,Lawrence,01842
Essex,Lawrence,01843
Essex,Lynn,01901
Essex,Lynn,01902
Essex,Lynn,01903
Essex,Lynn,01904
Essex,Lynn,01905
Essex,Lynn,01910
Essex,Lynnfield,01940
Essex,Manchester-By-The-Sea,01944
Essex,Marblehead,01945
Essex,Merrimac,01860
Essex,Methuen,01844
Essex,Middleton,01949
Essex,Nahant,01908
Essex,Newbury,01922
Essex,Newbury,01951
Essex,Newburyport,01950
Essex,Newburyport,01951
Essex,North Andover,01845
Essex,Peabody,01960
Essex,Peabody,01961
Essex,Rockport,01966
Essex,Rowley,01969
Essex,Salem,01970
Essex,Salem,01971
Essex,Salisbury,01952
Essex,Saugus,01906
Essex,Swampscott,01907
Essex,Topsfield,01983
Essex,Wenham,01984
Franklin,Ashfield,01330
Franklin,Bernardston,01337
Franklin,Buckland,01338
Franklin,Charlemont,01339
Franklin,Charlemont,01343
Franklin,Charlemont,01346
Franklin,Colrain,01340
Franklin,Conway,01341
Franklin,Deerfield,01342
Franklin,Erving,01344
Franklin,Gill,01354
Franklin,Greenfield,01302
Franklin,Greenfield,01303
Franklin,Hawley,01339
Franklin,Heath,01346
Franklin,Leverett,01054
Franklin,Leyden,01301
Franklin,Leyden,01337
Franklin,Monroe,01350
Franklin,Montague,01351
Franklin,New Salem,01355
Franklin,New Salem,01364
Franklin,Northfield,01360
Franklin,Orange,01355
Franklin,Orange,01364
Franklin,Orange,01378
Franklin,Rowe,01367
Franklin,Shelburne,01370
Franklin,Shutesbury,01072
Franklin,Sunderland,01375
Franklin,Warwick,01364
Franklin,Warwick,01378
Franklin,Wendell,01379
Franklin,Whately,01093
Franklin,Whately,01373
Hampden,Agawam,01001
Hampden,Blandford,01008
Hampden,Brimfield,01010
Hampden,Chester,01011
Hampden,Chicopee,01013
Hampden,Chicopee,01014
Hampden,Chicopee,01020
Hampden,Chicopee,01021
Hampden,Chicopee,01022
Hampden,East Longmeadow,01028
Hampden,East Longmeadow,01116
Hampden,Granville,01034
Hampden,Hampden,01036
Hampden,Holland,01521
Hampden,Holyoke,01040
Hampden,Holyoke,01041
Hampden,Longmeadow,01106
Hampden,Longmeadow,01116
Hampden,Ludlow,01056
Hampden,Monson,01057
Hampden,Montgomery,01085
Hampden,Palmer,01069
Hampden,Russell,01071
Hampden,Southwick,01077
Hampden,Springfield,01101
Hampden,Springfield,01102
Hampden,Springfield,01103
Hampden,Springfield,01104
Hampden,Springfield,01105
Hampden,Springfield,01106
Hampden,Springfield,01107
Hampden,Springfield,01108
Hampden,Springfield,01109
Hampden,Springfield,01111
Hampden,Springfield,01115
Hampden,Springfield,01118
Hampden,Springfield,01119
Hampden,Springfield,01128
Hampden,Springfield,01129
Hampden,Springfield,01138
Hampden,Springfield,01139
Hampden,Springfield,01144
Hampden,Springfield,01151
Hampden,Springfield,01152
Hampden,Springfield,01199
Hampden,Tolland,01034
Hampden,Wales,01081
Hampden,West Springfield,01089
Hampden,West Springfield,01090
Hampden,Westfield,01085
Hampden,Westfield,01086
Hampden,Wilbraham,01095
Hampshire,Amherst,01002
Hampshire,Amherst,01003
Hampshire,Amherst,01004
Hampshire,Amherst,01059
Hampshire,Belchertown,01007
Hampshire,Chesterfield,01012
Hampshire,Cummington,01026
Hampshire,Easthampton,01027
Hampshire,Goshen,01032
Hampshire,Granby,01033
Hampshire,Hadley,01035
Hampshire,Hatfield,01038
Hampshire,Huntington,01050
Hampshire,Middlefield,01243
Hampshire,Northampton,01060
Hampshire,Northampton,01061
Hampshire,Northampton,01062
Hampshire,Northampton,01063
Hampshire,Pelham,01002
Hampshire,Plainfield,01070
Hampshire,South Hadley,01075
Hampshire,Southampton,01073
Hampshire,Ware,01082
Hampshire,Westhampton,01027
Hampshire,Williamsburg,01096
Hampshire,Worthington,01098
Middlesex,Acton,01718
Middlesex,Acton,01719
Middlesex,Acton,01720
Middlesex,Arlington,02474
Middlesex,Arlington,02475
Middlesex,Arlington,02476
Middlesex,Ashby,01431
Middlesex,Ashland,01721
Middlesex,Ayer,01432
Middlesex,Ayer,01434
Middlesex,Bedford,01730
Middlesex,Bedford,01731
Middlesex,Belmont,02478
Middlesex,Belmont,02479
Middlesex,Billerica,01821
Middlesex,Billerica,01822
Middlesex,Billerica,01862
Middlesex,Boxborough,01719
Middlesex,Burlington,01803
Middlesex,Burlington,01805
Middlesex,Cambridge,02139
Middlesex,Cambridge,02140
Middlesex,Cambridge,02141
Middlesex,Cambridge,02142
Middlesex,Cambridge,02163
Middlesex,Cambridge,02238
Middlesex,Cambridge,02238
Middlesex,Carlisle,01741
Middlesex,Chelmsford,01824
Middlesex,Concord,01742
Middlesex,Dracut,01826
Middlesex,Dunstable,01827
Middlesex,Everett,02149
Middlesex,Framingham,01701
Middlesex,Framingham,01702
Middlesex,Framingham,01703
Middlesex,Framingham,01704
Middlesex,Framingham,01705
Middlesex,Groton,01450
Middlesex,Groton,01470
Middlesex,Groton,01471
Middlesex,Holliston,01746
Middlesex,Hopkinton,01748
Middlesex,Hudson,01749
Middlesex,Lexington,02420
Middlesex,Lexington,02421
Middlesex,Lincoln,01773
Middlesex,Littleton,01460
Middlesex,Lowell,01850
Middlesex,Lowell,01851
Middlesex,Lowell,01852
Middlesex,Lowell,01853
Middlesex,Lowell,01854
Middlesex,Malden,02148
Middlesex,Marlborough,01752
Middlesex,Maynard,01754
Middlesex,Medford,02153
Middlesex,Medford,02155
Middlesex,Medford,02156
Middlesex,Melrose,02176
Middlesex,Natick,01760
Middlesex,Newton,02456
Middlesex,Newton,02458
Middlesex,Newton,02459
Middlesex,Newton,02460
Middlesex,Newton,02461
Middlesex,Newton,02462
Middlesex,Newton,02464
Middlesex,Newton,02465
Middlesex,Newton,02466
Middlesex,Newton,02467
Middlesex,Newton,02468
Middlesex,Newton,02495
Middlesex,North Reading,01864
Middlesex,North Reading,01889
Middlesex,Pepperell,01463
Middlesex,Reading,01867
Middlesex,Sherborn,01770
Middlesex,Shirley,01464
Middlesex,Somerville,02143
Middlesex,Somerville,02144
Middlesex,Somerville,02145
Middlesex,Stoneham,02180
Middlesex,Stow,01775
Middlesex,Sudbury,01776
Middlesex,Tewksbury,01876
Middlesex,Townsend,01469
Middlesex,Townsend,01474
Middlesex,Tyngsborough,01879
Middlesex,Wakefield,01880
Middlesex,Waltham,02451
Middlesex,Waltham,02452
Middlesex,Waltham,02453
Middlesex,Waltham,02454
Middlesex,Waltham,02455
Middlesex,Watertown,02471
Middlesex,Watertown,02472
Middlesex,Watertown,02477
Middlesex,Wayland,01778
Middlesex,Westford,01886
Middlesex,Weston,02493
Middlesex,Wilmington,01887
Middlesex,Winchester,01890
Middlesex,Woburn,01801
Middlesex,Woburn,01807
Middlesex,Woburn,01813
Middlesex,Woburn,01815
Middlesex,Woburn,01888
Nantucket,Nantucket,02554
Nantucket,Nantucket,02564
Nantucket,Nantucket,02584
Norfolk,Avon,02322
Norfolk,Bellingham,02019
Norfolk,Braintree,02184
Norfolk,Braintree,02185
Norfolk,Brookline,02445
Norfolk,Brookline,02446
Norfolk,Brookline,02447
Norfolk,Brookline,02467
Norfolk,Canton,02021
Norfolk,Cohasset,02025
Norfolk,Dedham,02026
Norfolk,Dedham,02027
Norfolk,Dover,02030
Norfolk,Foxborough,02035
Norfolk,Franklin,02038
Norfolk,Holbrook,02343
Norfolk,Medfield,02052
Norfolk,Medway,02053
Norfolk,Millis,02054
Norfolk,Milton,02186
Norfolk,Needham,02492
Norfolk,Needham,02494
Norfolk,Norfolk,02056
Norfolk,Norwood,02062
Norfolk,Plainville,02762
Norfolk,Quincy,02169
Norfolk,Quincy,02170
Norfolk,Quincy,02171
Norfolk,Quincy,02269
Norfolk,Randolph,02368
Norfolk,Sharon,02067
Norfolk,Stoughton,02072
Norfolk,Walpole,02032
Norfolk,Walpole,02071
Norfolk,Walpole,02081
Norfolk,Wellesley,02457
Norfolk,Wellesley,02481
Norfolk,Wellesley,02482
Norfolk,Westwood,02090
Norfolk,Weymouth,02188
Norfolk,Weymouth,02189
Norfolk,Weymouth,02190
Norfolk,Weymouth,02191
Norfolk,Wrentham,02070
Norfolk,Wrentham,02093
Plymouth,Abington,02351
Plymouth,Bridgewater,02324
Plymouth,Bridgewater,02325
Plymouth,Brockton,02301
Plymouth,Brockton,02302
Plymouth,Brockton,02303
Plymouth,Brockton,02304
Plymouth,Brockton,02305
Plymouth,Carver,02330
Plymouth,Carver,02355
Plymouth,Carver,02366
Plymouth,Duxbury,02331
Plymouth,Duxbury,02332
Plymouth,East Bridgewater,02333
Plymouth,East Bridgewater,02337
Plymouth,Halifax,02338
Plymouth,Hanover,02339
Plymouth,Hanover,02340
Plymouth,Hanson,02341
Plymouth,Hanson,02350
Plymouth,Hingham,02018
Plymouth,Hingham,02043
Plymouth,Hingham,02044
Plymouth,Hull,02045
Plymouth,Kingston,02364
Plymouth,Lakeville,02347
Plymouth,Lakeville,02348
Plymouth,Marion,02738
Plymouth,Marshfield,02020
Plymouth,Marshfield,02041
Plymouth,Marshfield,02047
Plymouth,Marshfield,02050
Plymouth,Marshfield,02051
Plymouth,Marshfield,02059
Plymouth,Marshfield,02065
Plymouth,Mattapoisett,02739
Plymouth,Middleborough,02344
Plymouth,Middleborough,02346
Plymouth,Middleborough,02349
Plymouth,Norwell,02018
Plymouth,Norwell,02061
Plymouth,Pembroke,02327
Plymouth,Pembroke,02358
Plymouth,Pembroke,02359
Plymouth,Plymouth,02345
Plymouth,Plymouth,02360
Plymouth,Plymouth,02361
Plymouth,Plymouth,02362
Plymouth,Plymouth,02381
Plymouth,Plympton,02367
Plymouth,Rochester,02770
Plymouth,Rockland,02370
Plymouth,Scituate,02040
Plymouth,Scituate,02055
Plymouth,Scituate,02060
Plymouth,Scituate,02066
Plymouth,Wareham,02571
Plymouth,West Bridgewater,02379
Suffolk,Boston,02108
Suffolk,Boston,02109
Suffolk,Boston,02110
Suffolk,Boston,02111
Suffolk,Boston,02112
Suffolk,Boston,02113
Suffolk,Boston,02114
Suffolk,Boston,02115
Suffolk,Boston,02116
Suffolk,Boston,02117
Suffolk,Boston,02118
Suffolk,Boston,02119
Suffolk,Boston,02120
Suffolk,Boston,02121
Suffolk,Boston,02122
Suffolk,Boston,02123
Suffolk,Boston,02124
Suffolk,Boston,02125
Suffolk,Boston,02126
Suffolk,Boston,02127
Suffolk,Boston,02128
Suffolk,Boston,02129
Suffolk,Boston,02130
Suffolk,Boston,02131
Suffolk,Boston,02132
Suffolk,Boston,02133
Suffolk,Boston,02134
Suffolk,Boston,02135
Suffolk,Boston,02136
Suffolk,Boston,02137
Suffolk,Boston,02163
Suffolk,Boston,02196
Suffolk,Boston,02199
Suffolk,Boston,02201
Suffolk,Boston,02203
Suffolk,Boston,02204
Suffolk,Boston,02205
Suffolk,Boston,02206
Suffolk,Boston,02210
Suffolk,Boston,02211
Suffolk,Boston,02212
Suffolk,Boston,02215
Suffolk,Boston,02217
Suffolk,Boston,02222
Suffolk,Boston,02228
Suffolk,Boston,02241
Suffolk,Boston,02266
Suffolk,Boston,02283
Suffolk,Boston,02284
Suffolk,Boston,02293
Suffolk,Boston,02295
Suffolk,Boston,02297
Suffolk,Boston,02298
Suffolk,Chelsea,02150
Suffolk,Revere,02151
Suffolk,Winthrop,02152
Worcester,Ashburnham,01430
Worcester,Athol,01331
Worcester,Athol,01368
Worcester,Auburn,01501
Worcester,Barre,01005
Worcester,Berlin,01503
Worcester,Blackstone,01504
Worcester,Bolton,01740
Worcester,Boylston,01505
Worcester,Brookfield,01506
Worcester,Charlton,01507
Worcester,Clinton,01510
Worcester,Douglas,01516
Worcester,Dudley,01571
Worcester,East Brookfield,01515
Worcester,Fitchburg,01420
Worcester,Gardner,01440
Worcester,Gardner,01441
Worcester,Grafton,01519
Worcester,Hardwick,01037
Worcester,Hardwick,01082
Worcester,Harvard,01451
Worcester,Holden,01520
Worcester,Hopedale,01747
Worcester,Hubbardston,01452
Worcester,Lancaster,01523
Worcester,Leicester,01524
Worcester,Leominster,01453
Worcester,Lunenburg,01462
Worcester,Mendon,01756
Worcester,Milford,01757
Worcester,Millbury,01527
Worcester,Millbury,01586
Worcester,Millville,01529
Worcester,New Braintree,01531
Worcester,North Brookfield,01535
Worcester,Northborough,01532
Worcester,Northbridge,01534
Worcester,Oakham,01068
Worcester,Oxford,01540
Worcester,Paxton,01612
Worcester,Petersham,01366
Worcester,Phillipston,01331
Worcester,Princeton,01541
Worcester,Royalston,01331
Worcester,Royalston,01368
Worcester,Rutland,01543
Worcester,Shrewsbury,01545
Worcester,Shrewsbury,01546
Worcester,Southborough,01745
Worcester,Southborough,01772
Worcester,Southbridge,01550
Worcester,Spencer,01562
Worcester,Sterling,01564
Worcester,Sturbridge,01518
Worcester,Sturbridge,01566
Worcester,Sutton,01590
Worcester,Templeton,01468
Worcester,Upton,01568
Worcester,Uxbridge,01569
Worcester,Warren,01083
Worcester,Webster,01570
Worcester,West Boylston,01583
Worcester,West Brookfield,01585
Worcester,Westborough,01580
Worcester,Westborough,01581
Worcester,Westborough,01582
Worcester,Westminster,01441
Worcester,Westminster,01473
Worcester,Winchendon,01475
Worcester,Worcester,01601
Worcester,Worcester,01602
Worcester,Worcester,01603
Worcester,Worcester,01604
Worcester,Worcester,01605
Worcester,Worcester,01606
Worcester,Worcester,01607
Worcester,Worcester,01608
Worcester,Worcester,01609
Worcester,Worcester,01610
Worcester,Worcester,01612
Worcester,Worcester,01613
Worcester,Worcester,01614
Worcester,Worcester,01615
Worcester,Worcester,01653
Worcester,Worcester,01654
Worcester,Worcester,01655
