County,City,ZIP
Brown,Aberdeen,45101
Hardin,Ada,45810
Muskingum,Adamsville,43802
,Addyston,45001
Ross,Adelphi,43101
Harrison,Adena,43901
Seneca,Adrian,44801
Summit,Akron,44301
Summit,Akron,44302
Summit,Akron,44303
Summit,Akron,44304
Summit,Akron,44305
Summit,Akron,44306
Summit,Akron,44307
Summit,Akron,44308
,Akron,44309
Summit,Akron,44310
Summit,Akron,44311
Summit,Akron,44312
Summit,Akron,44313
Summit,Akron,44314
Summit,Akron,44315
Summit,Akron,44316
Summit,Akron,44317
Summit,Akron,44319
Summit,Akron,44320
Summit,Akron,44321
Summit,Akron,44322
Summit,Akron,44325
Summit,Akron,44326
Summit,Akron,44328
Summit,Akron,44329
,Akron,44333
,Akron,44334
,Akron,44372
Summit,Akron,44393
Summit,Akron,44396
Summit,Akron,44397
Summit,Akron,44398
Summit,Akron,44399
Athens,Albany,45710
Licking,Alexandria,43001
Hardin,Alger,45812
Belmont,Alledonia,43902
Stark,Alliance,44601
,Alpha,45301
Seneca,Alvada,44802
Williams,Alvordton,43501
Fairfield,Amanda,43102
Clermont,Amelia,45102
Athens,Amesville,45711
Athens,Amesville,45777
Lorain,Amherst,44001
Franklin,Amlin,43002
Seneca,Amsden,44803
Jefferson,Amsterdam,43903
Ashtabula,Andover,44003
Shelby,Anna,45302
Darke,Ansonia,45303
Paulding,Antwerp,45813
Wayne,Apple Creek,44606
Hancock,Arcadia,44804
Darke,Arcanum,45304
Fulton,Archbold,43502
Hancock,Arlington,45814
Ashland,Ashland,44805
Delaware,Ashley,43003
Ashtabula,Ashtabula,44004
,Ashtabula,44005
Pickaway,Ashville,43103
Athens,Athens,45701
Seneca,Attica,44807
Portage,Atwater,44201
,Augusta,44607
Portage,Aurora,44202
Ashtabula,Austinburg,44010
Noble,Ava,43711
Lorain,Avon,44011
Lorain,Avon Lake,44012
Ross,Bainbridge,45612
Coshocton,Bakersville,43803
Tuscarawas,Baltic,43804
Fairfield,Baltimore,43105
,Bannock,43972
Summit,Barberton,44203
Washington,Barlow,45712
Belmont,Barnesville,43713
Washington,Bartlett,45713
,Barton,43905
Seneca,Bascom,44809
Clermont,Batavia,45103
,Bath,44210
Stark,Beach City,44608
Monroe,Beallsville,43716
Pike,Beaver,45613
,Beaverdam,45808
Belmont,Bellaire,43906
Greene,Bellbrook,45305
Logan,Belle Center,43310
Noble,Belle Valley,43717
Logan,Bellefontaine,43311
Huron,Bellevue,44811
Richland,Bellville,44813
Belmont,Belmont,43718
,Belmore,45815
Mahoning,Beloit,44609
Washington,Belpre,45714
,Benton Ridge,45816
,Bentonville,45105
Cuyahoga,Berea,44017
Jefferson,Bergholz,43908
Lucas,Berkey,43504
,Berlin,44610
Mahoning,Berlin Center,44401
Erie,Berlin Heights,44814
Clermont,Bethel,45106
Belmont,Bethesda,43719
Seneca,Bettsville,44815
Washington,Beverly,45715
Gallia,Bidwell,45614
Holmes,Big Prairie,44611
Erie,Birmingham,44816
Franklin,Blacklick,43004
,Blacklick,43099
Knox,Bladensburg,43005
,Blaine,43909
,Blakeslee,43505
Clinton,Blanchester,45107
Coshocton,Blissfield,43805
Wood,Bloomdale,44817
Fayette,Bloomingburg,43106
Jefferson,Bloomingdale,43910
Seneca,Bloomville,44818
Adams,Blue Creek,45616
Muskingum,Blue Rock,43720
Allen,Bluffton,45817
Tuscarawas,Bolivar,44612
Shelby,Botkins,45306
Ross,Bourneville,45617
Harrison,Bowerston,44695
,Bowersville,45307
Wood,Bowling Green,43402
Wood,Bowling Green,43403
Miami,Bradford,45308
Wood,Bradner,43406
,Brady Lake,44211
Fairfield,Bremen,43107
Stark,Brewster,44613
Franklin,Brice,43109
Belmont,Bridgeport,43912
Jefferson,Brilliant,43913
Knox,Brinkhaven,43006
Trumbull,Bristolville,44402
Union,Broadway,43007
Trumbull,Brookfield,44403
Montgomery,Brookville,45309
Licking,Brownsville,43721
Medina,Brunswick,44212
Williams,Bryan,43506
Athens,Buchtel,45716
Licking,Buckeye Lake,43008
,Buckland,45819
Crawford,Bucyrus,44820
Guernsey,Buffalo,43722
Highland,Buford,45110
Wayne,Burbank,44214
Trumbull,Burghill,44404
Sandusky,Burgoon,43407
,Burkettsville,45310
Geauga,Burton,44021
Richland,Butler,44822
Guernsey,Byesville,43723
Champaign,Cable,43009
Harrison,Cadiz,43907
,Cairo,45820
Noble,Caldwell,43724
Marion,Caledonia,43314
Guernsey,Cambridge,43725
Preble,Camden,45311
,Cameron,43914
Hamilton,Camp Dennison,45111
Mahoning,Campbell,44405
Stark,Canal Fulton,44614
Franklin,Canal Winchester,43110
Mahoning,Canfield,44406
,Canton,44701
Stark,Canton,44702
Stark,Canton,44703
Stark,Canton,44704
Stark,Canton,44705
Stark,Canton,44706
Stark,Canton,44707
Stark,Canton,44708
Stark,Canton,44709
Stark,Canton,44710
,Canton,44711
Stark,Canton,44712
Stark,Canton,44714
Stark,Canton,44718
Stark,Canton,44720
Stark,Canton,44721
Stark,Canton,44730
,Canton,44735
Stark,Canton,44750
Stark,Canton,44760
Stark,Canton,44767
Stark,Canton,44798
Stark,Canton,44799
Hocking,Carbon Hill,43111
Morrow,Cardington,43315
Wyandot,Carey,43316
Fairfield,Carroll,43112
Carroll,Carrollton,44615
Miami,Casstown,45312
Erie,Castalia,44824
Clark,Catawba,43010
Paulding,Cecil,45821
Greene,Cedarville,45314
Mercer,Celina,45822
Knox,Centerburg,43011
Cuyahoga,Chagrin Falls,44022
,Chagrin Falls,44023
Muskingum,Chandlersville,43727
Geauga,Chardon,44024
,Charm,44617
Crawford,Chatfield,44825
Athens,Chauncey,45719
Adams,Cherry Fork,45618
Lawrence,Chesapeake,45619
Gallia,Cheshire,45620
Meigs,Chester,45720
Morgan,Chesterhill,43728
Geauga,Chesterland,44026
Morrow,Chesterville,43317
,Chickasaw,45826
Ross,Chillicothe,45601
,Chilo,45112
Medina,Chippewa Lake,44215
,Christiansburg,45389
,Cincinnati,45201
Hamilton,Cincinnati,45202
Hamilton,Cincinnati,45203
Hamilton,Cincinnati,45204
Hamilton,Cincinnati,45205
Hamilton,Cincinnati,45206
Hamilton,Cincinnati,45207
Hamilton,Cincinnati,45208
Hamilton,Cincinnati,45209
Hamilton,Cincinnati,45210
Hamilton,Cincinnati,45211
Hamilton,Cincinnati,45212
Hamilton,Cincinnati,45213
Hamilton,Cincinnati,45214
Hamilton,Cincinnati,45215
Hamilton,Cincinnati,45216
Hamilton,Cincinnati,45217
Hamilton,Cincinnati,45218
Hamilton,Cincinnati,45219
Hamilton,Cincinnati,45220
Hamilton,Cincinnati,45221
,Cincinnati,45222
Hamilton,Cincinnati,45223
Hamilton,Cincinnati,45224
Hamilton,Cincinnati,45225
Hamilton,Cincinnati,45226
Hamilton,Cincinnati,45227
Hamilton,Cincinnati,45228
Hamilton,Cincinnati,45229
Hamilton,Cincinnati,45230
Hamilton,Cincinnati,45231
Hamilton,Cincinnati,45232
Hamilton,Cincinnati,45233
,Cincinnati,45234
,Cincinnati,45235
Hamilton,Cincinnati,45236
Hamilton,Cincinnati,45237
Hamilton,Cincinnati,45238
Hamilton,Cincinnati,45239
Hamilton,Cincinnati,45240
Hamilton,Cincinnati,45241
Hamilton,Cincinnati,45242
Hamilton,Cincinnati,45243
Hamilton,Cincinnati,45244
Clermont,Cincinnati,45245
Hamilton,Cincinnati,45246
Hamilton,Cincinnati,45247
Hamilton,Cincinnati,45248
Hamilton,Cincinnati,45249
,Cincinnati,45250
Hamilton,Cincinnati,45251
Hamilton,Cincinnati,45252
,Cincinnati,45253
,Cincinnati,45254
Hamilton,Cincinnati,45255
,Cincinnati,45258
,Cincinnati,45262
Hamilton,Cincinnati,45263
Hamilton,Cincinnati,45264
Hamilton,Cincinnati,45267
Hamilton,Cincinnati,45268
Hamilton,Cincinnati,45269
Hamilton,Cincinnati,45270
Hamilton,Cincinnati,45271
Hamilton,Cincinnati,45273
Hamilton,Cincinnati,45274
,Cincinnati,45275
,Cincinnati,45277
Hamilton,Cincinnati,45296
Hamilton,Cincinnati,45298
Hamilton,Cincinnati,45299
Hamilton,Cincinnati,45944
Hamilton,Cincinnati,45999
Pickaway,Circleville,43113
Monroe,Clarington,43915
Ross,Clarksburg,43115
Clinton,Clarksville,45113
,Clay Center,43408
Montgomery,Clayton,45315
,Cleveland,44101
Cuyahoga,Cleveland,44102
Cuyahoga,Cleveland,44103
Cuyahoga,Cleveland,44104
Cuyahoga,Cleveland,44105
Cuyahoga,Cleveland,44106
Cuyahoga,Cleveland,44107
Cuyahoga,Cleveland,44108
Cuyahoga,Cleveland,44109
Cuyahoga,Cleveland,44110
Cuyahoga,Cleveland,44111
Cuyahoga,Cleveland,44112
Cuyahoga,Cleveland,44113
Cuyahoga,Cleveland,44114
Cuyahoga,Cleveland,44115
Cuyahoga,Cleveland,44116
Cuyahoga,Cleveland,44117
Cuyahoga,Cleveland,44118
Cuyahoga,Cleveland,44119
Cuyahoga,Cleveland,44120
Cuyahoga,Cleveland,44121
Cuyahoga,Cleveland,44122
Cuyahoga,Cleveland,44123
Cuyahoga,Cleveland,44124
Cuyahoga,Cleveland,44125
Cuyahoga,Cleveland,44126
Cuyahoga,Cleveland,44127
Cuyahoga,Cleveland,44128
Cuyahoga,Cleveland,44129
Cuyahoga,Cleveland,44130
Cuyahoga,Cleveland,44131
Cuyahoga,Cleveland,44132
Cuyahoga,Cleveland,44133
Cuyahoga,Cleveland,44134
Cuyahoga,Cleveland,44135
Cuyahoga,Cleveland,44136
Cuyahoga,Cleveland,44137
Cuyahoga,Cleveland,44138
Cuyahoga,Cleveland,44139
Cuyahoga,Cleveland,44140
Cuyahoga,Cleveland,44141
Cuyahoga,Cleveland,44142
Cuyahoga,Cleveland,44143
Cuyahoga,Cleveland,44144
Cuyahoga,Cleveland,44145
Cuyahoga,Cleveland,44146
Cuyahoga,Cleveland,44147
Cuyahoga,Cleveland,44177
Cuyahoga,Cleveland,44178
Cuyahoga,Cleveland,44179
,Cleveland,44181
Cuyahoga,Cleveland,44184
Cuyahoga,Cleveland,44185
Cuyahoga,Cleveland,44186
Cuyahoga,Cleveland,44188
,Cleveland,44189
Cuyahoga,Cleveland,44190
Cuyahoga,Cleveland,44191
Cuyahoga,Cleveland,44192
Cuyahoga,Cleveland,44193
Cuyahoga,Cleveland,44194
Cuyahoga,Cleveland,44195
Cuyahoga,Cleveland,44197
Cuyahoga,Cleveland,44198
,Cleveland,44199
Hamilton,Cleves,45002
,Clifton,45316
Summit,Clinton,44216
Putnam,Cloverdale,45827
Sandusky,Clyde,43410
Washington,Coal Run,45721
Jackson,Coalton,45621
Mercer,Coldwater,45828
,Colerain,43916
Butler,College Corner,45003
Huron,Collins,44826
,Collinsville,45004
,Colton,43510
Lorain,Columbia Station,44028
Columbiana,Columbiana,44408
Franklin,Columbus,43085
Franklin,Columbus,43201
Franklin,Columbus,43202
Franklin,Columbus,43203
Franklin,Columbus,43204
Franklin,Columbus,43205
Franklin,Columbus,43206
Franklin,Columbus,43207
Franklin,Columbus,43209
Franklin,Columbus,43210
Franklin,Columbus,43211
Franklin,Columbus,43212
Franklin,Columbus,43213
Franklin,Columbus,43214
Franklin,Columbus,43215
Franklin,Columbus,43216
Franklin,Columbus,43217
,Columbus,43218
Franklin,Columbus,43219
Franklin,Columbus,43220
Franklin,Columbus,43221
Franklin,Columbus,43222
Franklin,Columbus,43223
Franklin,Columbus,43224
,Columbus,43226
Franklin,Columbus,43227
Franklin,Columbus,43228
Franklin,Columbus,43229
Franklin,Columbus,43230
Franklin,Columbus,43231
Franklin,Columbus,43232
,Columbus,43234
Franklin,Columbus,43235
,Columbus,43236
,Columbus,43240
Franklin,Columbus,43251
Franklin,Columbus,43253
Franklin,Columbus,43260
Franklin,Columbus,43265
Franklin,Columbus,43266
Franklin,Columbus,43267
Franklin,Columbus,43268
Franklin,Columbus,43269
Franklin,Columbus,43270
Franklin,Columbus,43271
Franklin,Columbus,43272
,Columbus,43279
,Columbus,43284
Franklin,Columbus,43285
Franklin,Columbus,43286
Franklin,Columbus,43287
Franklin,Columbus,43291
,Columbus,43299
Putnam,Columbus Grove,45830
Pickaway,Commercial Point,43116
Coshocton,Conesville,43811
Ashtabula,Conneaut,44030
Miami,Conover,45317
Putnam,Continental,45831
Van Wert,Convoy,45832
Athens,Coolville,45723
Perry,Corning,43730
Trumbull,Cortland,44410
Coshocton,Coshocton,43812
Miami,Covington,45318
Vinton,Creola,45622
Crawford,Crestline,44827
Wayne,Creston,44217
Perry,Crooksville,43731
Licking,Croton,43013
Gallia,Crown City,45623
,Cuba,45114
Guernsey,Cumberland,43732
Ottawa,Curtice,43412
Wood,Custar,43511
Washington,Cutler,45724
Summit,Cuyahoga Falls,44221
,Cuyahoga Falls,44222
Summit,Cuyahoga Falls,44223
Summit,Cuyahoga Falls,44224
Wood,Cygnet,43413
Pike,Cynthiana,45624
Wayne,Dalton,44618
,Damascus,44619
Knox,Danville,43014
,Dayton,45401
Montgomery,Dayton,45402
Montgomery,Dayton,45403
Montgomery,Dayton,45404
Montgomery,Dayton,45405
Montgomery,Dayton,45406
Montgomery,Dayton,45407
Montgomery,Dayton,45408
Montgomery,Dayton,45409
Montgomery,Dayton,45410
Montgomery,Dayton,45412
,Dayton,45413
Montgomery,Dayton,45414
Montgomery,Dayton,45415
Montgomery,Dayton,45416
Montgomery,Dayton,45417
Montgomery,Dayton,45418
Montgomery,Dayton,45419
Montgomery,Dayton,45420
Montgomery,Dayton,45422
Montgomery,Dayton,45423
Montgomery,Dayton,45424
Montgomery,Dayton,45426
Montgomery,Dayton,45427
,Dayton,45428
Montgomery,Dayton,45429
Montgomery,Dayton,45430
Montgomery,Dayton,45431
Montgomery,Dayton,45432
Greene,Dayton,45433
,Dayton,45434
Montgomery,Dayton,45435
,Dayton,45437
Montgomery,Dayton,45439
Montgomery,Dayton,45440
,Dayton,45441
Montgomery,Dayton,45444
Montgomery,Dayton,45448
Montgomery,Dayton,45449
Montgomery,Dayton,45454
Montgomery,Dayton,45458
Montgomery,Dayton,45459
Montgomery,Dayton,45463
Montgomery,Dayton,45469
Montgomery,Dayton,45470
,Dayton,45475
Montgomery,Dayton,45479
Montgomery,Dayton,45481
Montgomery,Dayton,45482
,Dayton,45490
Logan,De Graff,43318
,Decatur,45115
Portage,Deerfield,44411
,Deersville,44693
Defiance,Defiance,43512
Delaware,Delaware,43015
Carroll,Dellroy,44620
Allen,Delphos,45833
Fulton,Delta,43515
Tuscarawas,Dennison,44621
Pickaway,Derby,43117
Guernsey,Derwent,43733
Henry,Deshler,43516
Noble,Dexter City,45727
Portage,Diamond,44412
Jefferson,Dillonvale,43917
Hardin,Dola,45835
,Donnelsville,45319
Ashtabula,Dorset,44032
Tuscarawas,Dover,44622
Wayne,Doylestown,44230
Muskingum,Dresden,43821
,Dublin,43016
Franklin,Dublin,43017
,Dunbridge,43414
Muskingum,Duncan Falls,43734
Tuscarawas,Dundee,44624
Hardin,Dunkirk,45836
,Dupont,45837
,East Claridon,44033
Muskingum,East Fultonham,43735
Logan,East Liberty,43319
Columbiana,East Liverpool,43920
Columbiana,East Palestine,44413
Columbiana,East Rochester,44625
Stark,East Sparta,44626
,East Springfield,43925
,Eastlake,44097
Preble,Eaton,45320
Williams,Edgerton,43517
Morrow,Edison,43320
Williams,Edon,43518
Preble,Eldorado,45321
,Elgin,45838
,Elkton,44415
,Ellsworth,44416
Ottawa,Elmore,43416
Lorain,Elyria,44035
,Elyria,44036
Lorain,Elyria,44039
,Empire,43926
Montgomery,Englewood,45322
Clark,Enon,45323
Licking,Etna,43018
,Evansport,43519
Greene,Fairborn,45324
,Fairfield,45018
,Fairpoint,43927
Guernsey,Fairview,43736
Trumbull,Farmdale,44417
,Farmer,43520
Montgomery,Farmersville,45325
Fulton,Fayette,43521
Brown,Fayetteville,45118
,Feesburg,45119
Clermont,Felicity,45120
,Findlay,45839
Hancock,Findlay,45840
Seneca,Flat Rock,44828
,Fleming,45729
Miami,Fletcher,45326
Belmont,Flushing,43977
Monroe,Fly,45730
Hardin,Forest,45843
Putnam,Fort Jennings,45844
Shelby,Fort Loramie,45845
Mercer,Fort Recovery,45846
Seneca,Fostoria,44830
Trumbull,Fowler,44418
Ross,Frankfort,45628
Warren,Franklin,45005
Scioto,Franklin Furnace,45629
Muskingum,Frazeysburg,43822
Wayne,Fredericksburg,44627
Knox,Fredericktown,43019
Guernsey,Freeport,43973
Sandusky,Fremont,43420
Coshocton,Fresno,43824
Scioto,Friendship,45630
Morrow,Fulton,43321
Muskingum,Fultonham,43738
Delaware,Galena,43021
Crawford,Galion,44833
Gallia,Gallipolis,45631
Franklin,Galloway,43119
Knox,Gambier,43022
Portage,Garrettsville,44231
Cuyahoga,Gates Mills,44040
Ashtabula,Geneva,44041
Ottawa,Genoa,43430
Brown,Georgetown,45121
Montgomery,Germantown,45327
,Gettysburg,45328
Sandusky,Gibsonburg,43431
Trumbull,Girard,44420
,Glandorf,45848
,Glencoe,43928
Perry,Glenford,43739
Holmes,Glenmont,44628
Athens,Glouster,45732
Tuscarawas,Gnadenhutten,44629
,Gomer,45809
,Gordon,45329
Clermont,Goshen,45122
Lorain,Grafton,44044
Wood,Grand Rapids,43522
,Grand River,44045
Licking,Granville,43023
Licking,Gratiot,43740
,Gratis,45330
Monroe,Graysville,45734
Ottawa,Graytown,43432
,Green,44232
Marion,Green Camp,43322
Seneca,Green Springs,44836
Highland,Greenfield,45123
,Greenfield,45165
,Greenford,44422
,Greentown,44630
Darke,Greenville,45331
Huron,Greenwich,44837
,Grelton,43523
Franklin,Grove City,43123
Franklin,Groveport,43125
,Groveport,43199
Paulding,Grover Hill,45849
Athens,Guysville,45735
,Gypsum,43433
Ross,Hallsville,45633
Vinton,Hamden,45634
Brown,Hamersville,45130
Butler,Hamilton,45011
,Hamilton,45012
Butler,Hamilton,45013
Butler,Hamilton,45014
Butler,Hamilton,45015
Butler,Hamilton,45020
Butler,Hamilton,45023
Butler,Hamilton,45025
Butler,Hamilton,45026
Henry,Hamler,43524
Jefferson,Hammondsville,43930
,Hannibal,43931
Columbiana,Hanoverton,44423
,Harbor View,43434
,Harlem Springs,44631
Wyandot,Harpster,43323
Franklin,Harrisburg,43126
Hamilton,Harrison,45030
,Harrisville,43974
Allen,Harrod,45850
,Hartford,44424
Stark,Hartville,44632
,Harveysburg,45032
Wood,Haskins,43525
Scioto,Haverhill,45636
Paulding,Haviland,45851
Hocking,Haydenville,43127
Ashland,Hayesville,44838
Licking,Hebron,43025
,Hebron,43098
Sandusky,Helena,43435
Defiance,Hicksville,43526
,Higginsport,45131
,Highland,45132
Franklin,Hilliard,43026
Highland,Hillsboro,45133
Medina,Hinckley,44233
Portage,Hiram,44234
Athens,Hockingport,45739
Henry,Holgate,43527
Lucas,Holland,43528
Darke,Hollansburg,45332
,Holloway,43985
Holmes,Holmesville,44633
Licking,Homer,43027
Medina,Homerville,44235
Columbiana,Homeworth,44634
,Hooven,45033
Harrison,Hopedale,43976
Muskingum,Hopewell,43746
Shelby,Houston,45333
Knox,Howard,43028
,Hoytville,43529
Trumbull,Hubbard,44425
Summit,Hudson,44236
Summit,Hudson,44237
Summit,Hudson,44238
Geauga,Huntsburg,44046
Logan,Huntsville,43324
Erie,Huron,44839
Morrow,Iberia,43325
Jefferson,Irondale,43932
Lawrence,Ironton,45638
Union,Irwin,43029
,Isle Saint George,43436
Jackson,Jackson,45640
Shelby,Jackson Center,45334
Licking,Jacksontown,43030
Athens,Jacksonville,45740
Belmont,Jacobsburg,43933
Greene,Jamestown,45335
Pike,Jasper,45642
Ashtabula,Jefferson,44047
Fayette,Jeffersonville,43128
Hancock,Jenera,45841
Ashland,Jeromesville,44840
,Jerry City,43437
Monroe,Jerusalem,43747
,Jewell,43530
Harrison,Jewett,43986
Licking,Johnstown,43031
Perry,Junction City,43748
,Kalida,45853
Seneca,Kansas,44841
Coshocton,Keene,43828
,Kelleys Island,43438
Columbiana,Kensington,44427
Portage,Kent,44240
Portage,Kent,44242
Portage,Kent,44243
Hardin,Kenton,43326
Gallia,Kerr,45643
,Kettlersville,45336
,Kidron,44636
Delaware,Kilbourne,43032
Holmes,Killbuck,44637
Guernsey,Kimbolton,43749
,Kings Mills,45034
Ross,Kingston,45644
Ashtabula,Kingsville,44048
Trumbull,Kinsman,44428
Guernsey,Kipling,43750
,Kipton,44049
Wyandot,Kirby,43330
Licking,Kirkersville,43033
Lawrence,Kitts Hill,45645
,Kunkle,43531
Marion,La Rue,43332
,Lacarne,43439
,Lafayette,45854
,Lafferty,43951
Lorain,Lagrange,44050
Monroe,Laings,43752
Mahoning,Lake Milton,44429
,Lakemore,44250
Ottawa,Lakeside-Marblehead,43440
Logan,Lakeview,43331
Holmes,Lakeville,44638
Fairfield,Lancaster,43130
Meigs,Langsville,45741
,Lansing,43934
Pike,Latham,45646
,Latty,45855
Miami,Laura,45337
Hocking,Laurelville,43135
Trumbull,Leavittsburg,44430
Warren,Lebanon,45036
,Lees Creek,45138
Highland,Leesburg,45135
,Leesville,44639
Columbiana,Leetonia,44431
Putnam,Leipsic,45856
,Lemoyne,43441
Delaware,Lewis Center,43035
Preble,Lewisburg,45338
Logan,Lewistown,43333
Monroe,Lewisville,43754
Henry,Liberty Center,43532
Allen,Lima,45801
,Lima,45802
Allen,Lima,45804
Allen,Lima,45805
Auglaize,Lima,45806
Allen,Lima,45807
,Limaville,44640
Sandusky,Lindsey,43442
Columbiana,Lisbon,44432
Medina,Litchfield,44253
Fairfield,Lithopolis,43136
Washington,Little Hocking,45742
Franklin,Lockbourne,43137
Medina,Lodi,44254
Hocking,Logan,43138
Madison,London,43140
Ross,Londonderry,45647
Meigs,Long Bottom,45743
Lorain,Lorain,44052
Lorain,Lorain,44053
Lorain,Lorain,44054
Lorain,Lorain,44055
Guernsey,Lore City,43755
Ashland,Loudonville,44842
Stark,Louisville,44641
Clermont,Loveland,45140
Washington,Lowell,45744
Mahoning,Lowellville,44436
Washington,Lower Salem,45745
Richland,Lucas,44843
Scioto,Lucasville,45648
Scioto,Lucasville,45699
Wood,Luckey,43443
Miami,Ludlow Falls,45339
Highland,Lynchburg,45142
Adams,Lynx,45650
Fulton,Lyons,43533
Summit,Macedonia,44056
Washington,Macksburg,45746
Lake,Madison,44057
Union,Magnetic Springs,43036
Stark,Magnolia,44643
Warren,Maineville,45039
Monroe,Malaga,43757
Henry,Malinta,43535
Morgan,Malta,43758
Carroll,Malvern,44644
Adams,Manchester,45144
Richland,Mansfield,44901
Richland,Mansfield,44902
Richland,Mansfield,44903
Richland,Mansfield,44904
Richland,Mansfield,44905
Richland,Mansfield,44906
Richland,Mansfield,44907
Richland,Mansfield,44999
Portage,Mantua,44255
Shelby,Maplewood,45340
,Marathon,45145
Morrow,Marengo,43334
Mercer,Maria Stein,45860
Washington,Marietta,45750
,Marion,43301
Marion,Marion,43302
Marion,Marion,43305
Marion,Marion,43306
Marion,Marion,43307
Defiance,Mark Center,43536
Wayne,Marshallville,44645
Marion,Martel,43335
Ottawa,Martin,43445
Belmont,Martins Ferry,43935
Knox,Martinsburg,43037
Clinton,Martinsville,45146
Union,Marysville,43040
Union,Marysville,43041
Warren,Mason,45040
Stark,Massillon,44646
Stark,Massillon,44647
,Massillon,44648
Trumbull,Masury,44438
Lucas,Maumee,43537
,Maximo,44650
,Maynard,43937
Vinton,Mc Arthur,45651
Henry,Mc Clure,43534
Hancock,Mc Comb,45858
Morgan,Mc Connelsville,43756
Wyandot,Mc Cutchenville,44844
Scioto,Mc Dermott,45652
Trumbull,Mc Donald,44437
,Mc Guffey,45859
Champaign,Mechanicsburg,43044
Carroll,Mechanicstown,44651
Medina,Medina,44256
,Medina,44258
Clark,Medway,45341
Seneca,Melmore,44845
,Melrose,45861
Mercer,Mendon,45862
Lake,Mentor,44060
,Mentor,44061
,Mesopotamia,44439
Fulton,Metamora,43540
Montgomery,Miamisburg,45342
,Miamisburg,45343
,Miamitown,45041
,Miamiville,45147
,Middle Bass,43446
Van Wert,Middle Point,45863
,Middlebranch,44652
Logan,Middleburg,43336
Geauga,Middlefield,44062
Meigs,Middleport,45760
Butler,Middletown,45042
Butler,Middletown,45043
Butler,Middletown,45044
Clinton,Midland,45148
,Midvale,44653
Erie,Milan,44846
,Milford,45150
Union,Milford Center,43045
Wood,Millbury,43447
Fayette,Milledgeville,43142
,Miller City,45864
Holmes,Millersburg,44654
Fairfield,Millersport,43046
Athens,Millfield,45761
,Milton Center,43541
Tuscarawas,Mineral City,44656
Trumbull,Mineral Ridge,44440
Stark,Minerva,44657
Scioto,Minford,45653
Champaign,Mingo,43047
Jefferson,Mingo Junction,43938
Auglaize,Minster,45865
Summit,Mogadore,44260
Lucas,Monclova,43542
Butler,Monroe,45050
,Monroe,45073
,Monroe,45099
Huron,Monroeville,44847
,Montezuma,45866
Williams,Montpelier,43543
,Montville,44064
Marion,Morral,43337
Belmont,Morristown,43759
Warren,Morrow,45152
Clermont,Moscow,45153
Hancock,Mount Blanchard,45867
Hancock,Mount Cory,45868
,Mount Eaton,44659
Morrow,Mount Gilead,43338
,Mount Hope,44660
Knox,Mount Liberty,43048
Brown,Mount Orab,45154
Perry,Mount Perry,43760
Hamilton,Mount Saint Joseph,45051
Madison,Mount Sterling,43143
Knox,Mount Vernon,43050
Hardin,Mount Victory,43340
,Mowrystown,45155
Perry,Moxahala,43761
Jefferson,Mt. Pleasant,43939
Summit,Munroe Falls,44262
Hocking,Murray City,43144
Ashland,Nankin,44848
Henry,Napoleon,43545
Muskingum,Nashport,43830
,Nashville,44661
Stark,Navarre,44662
,Neapolis,43547
,Neffs,43940
Columbiana,Negley,44441
Athens,Nelsonville,45717
Athens,Nelsonville,45764
Wyandot,Nevada,44849
,Neville,45156
Franklin,New Albany,43054
,New Athens,43981
Henry,New Bavaria,43548
Marion,New Bloomington,43341
Auglaize,New Bremen,45869
Clark,New Carlisle,45344
Muskingum,New Concord,43762
,New Hampshire,45870
Huron,New Haven,44850
Pickaway,New Holland,43145
Auglaize,New Knoxville,45871
Montgomery,New Lebanon,45345
Perry,New Lexington,43764
Huron,New London,44851
Darke,New Madison,45346
Athens,New Marshfield,45766
Washington,New Matamoras,45767
Mahoning,New Middletown,44442
Preble,New Paris,45347
Tuscarawas,New Philadelphia,44663
Vinton,New Plymouth,45654
Clermont,New Richmond,45157
Seneca,New Riegel,44853
,New Rumley,43984
Mahoning,New Springfield,44443
Perry,New Straitsville,43766
Clinton,New Vienna,45159
Crawford,New Washington,44854
Columbiana,New Waterford,44445
Darke,New Weston,45348
Licking,Newark,43055
Licking,Newark,43056
,Newark,43058
Licking,Newark,43093
Geauga,Newbury,44065
Tuscarawas,Newcomerstown,43832
Washington,Newport,45768
Trumbull,Newton Falls,44444
Clermont,Newtonsville,45158
Defiance,Ney,43549
Trumbull,Niles,44446
Wood,North Baltimore,45872
Hamilton,North Bend,45052
Mahoning,North Benton,44449
Trumbull,North Bloomfield,44450
Huron,North Fairfield,44855
,North Georgetown,44665
,North Hampton,45349
Mahoning,North Jackson,44451
,North Kingsville,44068
Stark,North Lawrence,44666
Champaign,North Lewisburg,43060
Mahoning,North Lima,44452
Cuyahoga,North Olmsted,44070
Crawford,North Robinson,44856
,North Star,45350
Summit,Northfield,44067
Huron,Norwalk,44857
Muskingum,Norwich,43767
Ashland,Nova,44859
Geauga,Novelty,44072
Geauga,Novelty,44073
Ottawa,Oak Harbor,43449
Jackson,Oak Hill,45656
Paulding,Oakwood,45873
Lorain,Oberlin,44074
Crawford,Oceola,44860
Van Wert,Ohio City,45874
Fayette,Okeana,45053
,Okolona,43550
Seneca,Old Fort,44861
Guernsey,Old Washington,43768
Richland,Ontario,44862
,Orangeville,44453
Warren,Oregonia,45054
Pickaway,Orient,43146
Wayne,Orrville,44667
Ashtabula,Orwell,44076
,Osgood,45351
Delaware,Ostrander,43061
Putnam,Ottawa,45875
,Ottoville,45876
Scioto,Otway,45657
,Overpeck,45055
,Owensville,45160
Butler,Oxford,45056
Lake,Painesville,44077
,Palestine,45352
Putnam,Pandora,45877
Stark,Paris,44669
,Parkman,44080
Licking,Pataskala,43062
Gallia,Patriot,45658
Paulding,Paulding,45879
Paulding,Payne,45880
Lawrence,Pedro,45659
Adams,Peebles,45660
,Pemberton,45353
Wood,Pemberville,43450
Summit,Peninsula,44264
Lake,Perry,44081
Wood,Perrysburg,43551
,Perrysburg,43552
Ashland,Perrysville,44864
Mahoning,Petersburg,44454
,Pettisville,43553
,Phillipsburg,45354
Muskingum,Philo,43771
Fairfield,Pickerington,43147
Harrison,Piedmont,43983
Ashtabula,Pierpont,44082
Pike,Piketon,45661
,Piney Fork,43941
Williams,Pioneer,43554
Miami,Piqua,45356
,Pitsburg,45358
Madison,Plain City,43064
Coshocton,Plainfield,43836
Guernsey,Pleasant City,43772
Miami,Pleasant Hill,45359
Warren,Pleasant Plain,45162
Fairfield,Pleasantville,43148
Richland,Plymouth,44865
Ashland,Polk,44866
Meigs,Pomeroy,45769
Ottawa,Port Clinton,43452
,Port Jefferson,45360
Tuscarawas,Port Washington,43837
,Port William,45164
Wood,Portage,43451
Meigs,Portland,45770
Scioto,Portsmouth,45662
,Potsdam,45361
Delaware,Powell,43065
Belmont,Powhatan Point,43942
Lawrence,Proctorville,45669
Marion,Prospect,43342
,Put In Bay,43456
Guernsey,Quaker City,43773
Logan,Quincy,43343
Meigs,Racine,45771
Vinton,Radcliff,45670
Delaware,Radnor,43066
,Randolph,44265
Scioto,Rarden,45671
Portage,Ravenna,44266
Hancock,Rawson,45881
Vinton,Ray,45672
Jefferson,Rayland,43943
Union,Raymond,43067
Meigs,Reedsville,45772
,Reesville,45166
Washington,Reno,45773
Seneca,Republic,44867
Franklin,Reynoldsburg,43068
Summit,Richfield,44286
Jefferson,Richmond,43944
Ross,Richmond Dale,45673
Union,Richwood,43344
,Ridgeville Corners,43555
Hardin,Ridgeway,43345
Washington,Rinard Mills,45789
Gallia,Rio Grande,45674
Brown,Ripley,45167
Wood,Risingsun,43457
Wayne,Rittman,44270
,Robertsville,44670
Lawrence,Rock Camp,45675
Ashtabula,Rock Creek,44084
Hocking,Rockbridge,43149
Mercer,Rockford,45882
,Rocky Ridge,43458
Columbiana,Rogers,44455
Ashtabula,Rome,44085
Portage,Rootstown,44272
Muskingum,Roseville,43777
Champaign,Rosewood,43070
Butler,Ross,45061
Darke,Rossburg,45362
Lucas,Rossford,43460
Hardin,Roundhead,43346
Wood,Rudolph,43462
Logan,Rushsylvania,43347
Fairfield,Rushville,43150
Logan,Russells Point,43348
Brown,Russellville,45168
Shelby,Russia,45363
Meigs,Rutland,45775
Clinton,Sabina,45169
Belmont,Saint Clairsville,43950
Mercer,Saint Henry,45883
,Saint Johns,45884
Licking,Saint Louisville,43071
Auglaize,Saint Marys,45885
Champaign,Saint Paris,43072
Columbiana,Salem,44460
Guernsey,Salesville,43778
Columbiana,Salineville,43945
Erie,Sandusky,44870
,Sandusky,44871
,Sandyville,44671
Noble,Sarahsville,43779
Brown,Sardinia,45171
Monroe,Sardis,43946
Ashland,Savannah,44874
Harrison,Scio,43988
Scioto,Scioto Furnace,45677
Van Wert,Scott,45886
Lawrence,Scottown,45678
Adams,Seaman,45679
Mahoning,Sebring,44672
Madison,Sedalia,43151
Guernsey,Senecaville,43780
Butler,Seven Mile,45062
Medina,Seville,44273
Athens,Shade,45776
Belmont,Shadyside,43947
,Shandon,45063
,Sharon Center,44274
Morrow,Shauck,43349
Perry,Shawnee,43782
Richland,Shelby,44875
Carroll,Sherrodsville,44675
Defiance,Sherwood,43556
Richland,Shiloh,44878
,Short Creek,43989
Wayne,Shreve,44676
Shelby,Sidney,45365
Shelby,Sidney,45367
,Sinking Spring,45172
,Smithfield,43948
Wayne,Smithville,44677
,Somerdale,44678
Perry,Somerset,43783
Butler,Somerville,45064
Hocking,South Bloomingville,43152
Clark,South Charleston,45368
Warren,South Lebanon,45065
Lawrence,South Point,45680
Ross,South Salem,45681
Madison,South Solon,43153
Clark,South Vienna,45369
Scioto,South Webster,45682
Trumbull,Southington,44470
Morrow,Sparta,43350
Medina,Spencer,44275
Allen,Spencerville,45887
Greene,Spring Valley,45370
Warren,Springboro,45066
,Springfield,45501
Clark,Springfield,45502
Clark,Springfield,45503
Clark,Springfield,45504
Clark,Springfield,45505
Clark,Springfield,45506
Monroe,Stafford,43786
Wayne,Sterling,44276
Jefferson,Steubenville,43952
Athens,Stewart,45778
,Stewartsville,43960
,Stillwater,44679
,Stockdale,45683
Morgan,Stockport,43770
Morgan,Stockport,43787
Tuscarawas,Stone Creek,43840
,Stony Ridge,43463
Adams,Stout,45684
Fairfield,Stoutsville,43154
Tuscarawas,Strasburg,44680
,Stratton,43961
Portage,Streetsboro,44241
,Strongsville,44149
Mahoning,Struthers,44471
Williams,Stryker,43557
Fairfield,Sugar Grove,43155
Tuscarawas,Sugarcreek,44681
Ashland,Sullivan,44880
Crawford,Sulphur Springs,44881
Noble,Summerfield,43788
Licking,Summit Station,43073
,Summitville,43962
Delaware,Sunbury,43074
Fulton,Swanton,43558
Wyandot,Sycamore,44882
Monroe,Sycamore Valley,43789
Lucas,Sylvania,43560
Meigs,Syracuse,45779
Summit,Tallmadge,44278
,Tarlton,43156
Hamilton,Terrace Park,45174
Athens,The Plains,45780
Geauga,Thompson,44086
Perry,Thornville,43076
Gallia,Thurman,45685
Fairfield,Thurston,43157
Seneca,Tiffin,44883
Jefferson,Tiltonsville,43963
Miami,Tipp City,45371
Harrison,Tippecanoe,44699
Crawford,Tiro,44887
Lucas,Toledo,43601
Lucas,Toledo,43602
,Toledo,43603
Lucas,Toledo,43604
Lucas,Toledo,43605
Lucas,Toledo,43606
Lucas,Toledo,43607
Lucas,Toledo,43608
Lucas,Toledo,43609
Lucas,Toledo,43610
Lucas,Toledo,43611
Lucas,Toledo,43612
Lucas,Toledo,43613
Lucas,Toledo,43614
Lucas,Toledo,43615
Lucas,Toledo,43616
Lucas,Toledo,43617
Lucas,Toledo,43618
Wood,Toledo,43619
Lucas,Toledo,43620
Lucas,Toledo,43623
Lucas,Toledo,43624
,Toledo,43635
Lucas,Toledo,43652
Lucas,Toledo,43653
Lucas,Toledo,43654
Lucas,Toledo,43655
Lucas,Toledo,43656
Lucas,Toledo,43657
Lucas,Toledo,43659
Lucas,Toledo,43660
Lucas,Toledo,43661
Lucas,Toledo,43666
Lucas,Toledo,43667
Lucas,Toledo,43681
Lucas,Toledo,43682
,Toledo,43697
,Toledo,43699
,Tontogany,43565
Athens,Torch,45781
Jefferson,Toronto,43964
,Tremont City,45372
Butler,Trenton,45067
Athens,Trimble,45782
Muskingum,Trinway,43842
Miami,Troy,45373
Miami,Troy,45374
Meigs,Tuppers Plains,45783
,Tuscarawas,44682
Summit,Twinsburg,44087
Tuscarawas,Uhrichsville,44683
Darke,Union City,45390
Hocking,Union Furnace,43158
,Unionport,43966
Stark,Uniontown,44685
,Unionville,44088
Union,Unionville Center,43077
,Uniopolis,45888
Wyandot,Upper Sandusky,43351
Champaign,Urbana,43078
Licking,Utica,43080
Medina,Valley City,44280
Hancock,Van Buren,45889
Van Wert,Van Wert,45891
Montgomery,Vandalia,45377
Hancock,Vanlue,45890
,Vaughnsville,45893
Van Wert,Venedocia,45894
Erie,Vermilion,44089
,Verona,45378
Darke,Versailles,45380
Sandusky,Vickery,43464
Trumbull,Vienna,44473
Washington,Vincent,45784
Gallia,Vinton,45686
Medina,Wadsworth,44281
,Wadsworth,44282
Pike,Wakefield,45687
Huron,Wakeman,44889
Wood,Walbridge,43465
Marion,Waldo,43356
Coshocton,Walhonding,43843
,Walnut Creek,44687
Auglaize,Wapakoneta,45895
,Warnock,43967
Trumbull,Warren,44481
,Warren,44482
Trumbull,Warren,44483
Trumbull,Warren,44484
Trumbull,Warren,44485
Trumbull,Warren,44486
Trumbull,Warren,44487
Trumbull,Warren,44488
Coshocton,Warsaw,43844
Fayette,Washington Court Hou,43160
Columbiana,Washingtonville,44490
Washington,Waterford,45786
Lawrence,Waterloo,45688
Washington,Watertown,45787
Lucas,Waterville,43566
Fulton,Wauseon,43567
Pike,Waverly,45690
,Wayland,44285
Wood,Wayne,43466
Stark,Waynesburg,44688
Auglaize,Waynesfield,45896
Warren,Waynesville,45068
Lorain,Wellington,44090
Jackson,Wellston,45692
Columbiana,Wellsville,43968
Preble,West Alexandria,45381
Butler,West Chester,45069
,West Chester,45071
,West Elkton,45070
Trumbull,West Farmington,44491
Madison,West Jefferson,43162
Coshocton,West Lafayette,43845
Logan,West Liberty,43357
Preble,West Manchester,45382
Logan,West Mansfield,43358
,West Millgrove,43467
Miami,West Milton,45383
,West Point,44492
,West Portsmouth,45663
Fairfield,West Rushville,43163
Wayne,West Salem,44287
Adams,West Union,45693
Williams,West Unity,43570
Franklin,Westerville,43081
,Westerville,43082
,Westerville,43086
,Westfield Center,44251
Wood,Weston,43569
Champaign,Westville,43083
Wyandot,Wharton,43359
Scioto,Wheelersburg,45694
Washington,Whipple,45788
Muskingum,White Cottage,43791
Lucas,Whitehouse,43571
Lake,Wickliffe,44092
,Wilberforce,45384
Vinton,Wilkesville,45695
Huron,Willard,44888
Huron,Willard,44890
Clermont,Williamsburg,45176
Ashtabula,Williamsfield,44093
Pickaway,Williamsport,43164
,Williamstown,45897
,Williston,43468
Lake,Willoughby,44094
Lake,Willoughby,44095
,Willoughby,44096
Lawrence,Willow Wood,45696
Van Wert,Willshire,45898
Clinton,Wilmington,45177
Stark,Wilmot,44689
Adams,Winchester,45697
Portage,Windham,44288
Ashtabula,Windsor,44099
,Winesburg,44690
,Winona,44493
,Wintersville,43953
,Wolf Run,43970
Monroe,Woodsfield,43793
Champaign,Woodstock,43084
Sandusky,Woodville,43469
Wayne,Wooster,44691
,Wren,45899
Greene,Xenia,45385
Greene,Yellow Springs,45387
Darke,Yorkshire,45388
Jefferson,Yorkville,43971
,Youngstown,44501
Mahoning,Youngstown,44502
Mahoning,Youngstown,44503
Mahoning,Youngstown,44504
Mahoning,Youngstown,44505
Mahoning,Youngstown,44506
Mahoning,Youngstown,44507
Mahoning,Youngstown,44509
Mahoning,Youngstown,44510
Mahoning,Youngstown,44511
Mahoning,Youngstown,44512
,Youngstown,44513
Mahoning,Youngstown,44514
Mahoning,Youngstown,44515
Mahoning,Youngstown,44555
Mahoning,Youngstown,44598
Mahoning,Youngstown,44599
Vinton,Zaleski,45698
Logan,Zanesfield,43360
Muskingum,Zanesville,43701
Muskingum,Zanesville,43702
,Zoar,44697
