County,City,ZIP
Adair,Stilwell,74960
Adair,Watts,74964
Adair,Westville,74965
Alfalfa,Cherokee,73728
Alfalfa,Jet,73749
Alfalfa,Burlington,73722
Atoka,Atoka,74525
Atoka,Stringtown,74569
Atoka,Tushka,74525
Beaver,Beaver,73932
Beaver,Forgan,73938
Beaver,Turpin,73950
Beaver,Gate,73844
Beaver,Balko,73931
Beckham,Elk City,73644
Beckham,Sayre,73662
Beckham,Erick,73645
Beckham,Carter,73627
Blaine,Watonga,73772
Blaine,Geary,73040
Blaine,Okeene,73763
Blaine,Canton,73724
Blaine,Longdale,73755
Bryan,Durant,74701
Bryan,Calera,74730
Bryan,Caddo,74729
Bryan,Colbert,74733
Bryan,Achille,74720
Bryan,Bokchito,74726
Bryan,Silo,74701
Caddo,Anadarko,73005
Caddo,Fort Cobb,73038
Caddo,Hydro,73048
Caddo,Hinton,73047
Caddo,Lookeba,73053
Caddo,Binger,73009
Caddo,Gracemont,73042
Caddo,Carnegie,73015
Canadian,El Reno,73036
Canadian,Yukon,73099
Canadian,Mustang,73064
Canadian,Piedmont,73078
Canadian,Union City,73090
Canadian,Calumet,73014
Canadian,Okarche,73762
Carter,Ardmore,73401
Carter,Lone Grove,73443
Carter,Healdton,73438
Carter,Wilson,73463
Cherokee,Tahlequah,74464
Cherokee,Hulbert,74441
Cherokee,Keys,74534
Choctaw,Hugo,74743
Choctaw,Fort Towson,74735
Choctaw,Boswell,74727
Choctaw,Soper,74759
Choctaw,Sawyer,74756
Cimarron,Boise City,73933
Cimarron,Keyes,73947
Cleveland,Norman,73019
Cleveland,Moore,73160
Cleveland,Noble,73068
Cleveland,Lexington,73051
Craig,Vinita,74301
Craig,Welch,74369
Craig,Bluejacket,74333
Craig,Big Cabin,74332
Craig,Ketchum,74349
Creek,Sapulpa,74066
Creek,Bristow,74010
Creek,Drumright,74030
Creek,Kellyville,74039
Creek,Mannford,74044
Creek,Depew,74028
Creek,Kiefer,74041
Creek,Mounds,74047
Creek,Slick,74071
Creek,Oilton,74052
Custer,Clinton,73601
Custer,Weatherford,73096
Custer,Arapaho,73620
Custer,Thomas,73669
Custer,Butler,73625
Delaware,Jay,74346
Delaware,Grove,74344
Delaware,Colcord,74338
Delaware,Kansas,74347
Dewey,Taloga,73667
Dewey,Oakwood,73658
Dewey,Seiling,73663
Dewey,Vici,73859
Ellis,Arnett,73832
Ellis,Shattuck,73858
Ellis,Fargo,73840
Ellis,Gage,73843
Garfield,Enid,73701
Garfield,Waukomis,73773
Garfield,Garber,73738
Garfield,Covington,73730
Garfield,North Enid,73701
Garfield,Kremlin,73753
Garfield,Drummond,73735
Garfield,Lahoma,73754
Garfield,Carrier,73727
Garvin,Pauls Valley,73075
Garvin,Maysville,73057
Garvin,Lindsay,73052
Garvin,Stratford,74872
Garvin,Wynnewood,73098
Garvin,Elmore City,73433
Garvin,Paoli,73074
Grady,Chickasha,73018
Grady,Tuttle,73089
Grady,Blanchard,73010
Grady,Ninnekah,73067
Grady,Rush Springs,73082
Grady,Amber,73004
Grady,Verden,73092
Grant,Medford,73759
Grant,Pond Creek,73766
Grant,Lamont,73643
Grant,Deer Creek,73741
Grant,Manchester,73758
Greer,Mangum,73554
Greer,Granite,73547
Harmon,Hollis,73550
Harmon,Gould,73544
Harper,Buffalo,73834
Harper,Laverne,73848
Haskell,Stigler,74462
Haskell,Keota,74941
Haskell,McCurtain,74944
Haskell,Whitefield,74472
Hughes,Holdenville,74848
Hughes,Wetumka,74883
Hughes,Calvin,74531
Jackson,Altus,73521
Jackson,Eldorado,73537
Jackson,Olustee,73560
Jackson,Duke,73532
Jackson,Martha,73556
Jackson,Blair,73526
Jefferson,Waurika,73573
Jefferson,Ryan,73565
Jefferson,Ringling,73456
Jefferson,Hastings,73548
Jefferson,Terral,73569
Johnston,Tishomingo,73460
Johnston,Milburn,73450
Johnston,Wapanucka,73461
Johnston,Mannsville,73447
Kay,Ponca City,74601
Kay,Blackwell,74631
Kay,Tonkawa,74653
Kay,Newkirk,74647
Kay,Braman,74632
Kingfisher,Kingfisher,73750
Kingfisher,Hennessey,73742
Kingfisher,Okarche,73762
Kingfisher,Dover,73734
Kingfisher,Loyal,73756
Kiowa,Hobart,73651
Kiowa,Mountain View,73062
Kiowa,Snyder,73566
Kiowa,Roosevelt,73564
Latimer,Wilburton,74578
Latimer,Red Oak,74563
Le Flore,Poteau,74953
Le Flore,Heavener,74937
Le Flore,Spiro,74959
Le Flore,Wister,74966
Le Flore,Pocola,74902
Le Flore,Howe,74940
Le Flore,Panama,74951
Le Flore,Bokoshe,74930
Le Flore,Shady Point,74956
Le Flore,Talihina,74571
Le Flore,Fanshawe,74936
Le Flore,Hodgen,74939
Lincoln,Chandler,74834
Lincoln,Prague,74864
Lincoln,Stroud,74079
Lincoln,Wellston,74881
Lincoln,Davenport,74026
Lincoln,Meeker,74855
Lincoln,Tryon,74875
Lincoln,Carney,74832
Lincoln,Agra,74824
Logan,Guthrie,73044
Logan,Crescent,73028
Logan,Coyle,73027
Logan,Mulhall,73063
Logan,Langston,73050
Love,Marietta,73448
Love,Thackerville,73459
McClain,Purcell,73080
McClain,Newcastle,73065
McClain,Blanchard,73010
McClain,Washington,73093
McClain,Goldsby,73093
McClain,Wayne,73095
McClain,Dibble,73031
McCurtain,Idabel,74745
McCurtain,Broken Bow,74728
McCurtain,Valliant,74764
McCurtain,Wright City,74766
McCurtain,Haworth,74740
McIntosh,Eufaula,74432
McIntosh,Checotah,74426
Major,Fairview,73737
Major,Ringwood,73768
Major,Cleo Springs,73729
Major,Ames,73718
Marshall,Madill,73446
Marshall,Kingston,73439
Mayes,Pryor Creek,74361
Mayes,Chouteau,74337
Mayes,Locust Grove,74352
Mayes,Salina,74365
Mayes,Adair,74330
Murray,Sulphur,73086
Murray,Davis,73030
Muskogee,Muskogee,74401
Muskogee,Fort Gibson,74434
Muskogee,Haskell,74436
Muskogee,Braggs,74423
Muskogee,Oktaha,74450
Muskogee,Porum,74455
Muskogee,Boynton,74422
Muskogee,Warner,74469
Noble,Perry,73077
Noble,Billings,74630
Nowata,Nowata,74048
Nowata,Delaware,74027
Okfuskee,Okemah,74859
Okfuskee,Weleetka,74880
Okfuskee,Castle,74833
Oklahoma,Oklahoma City,73101
Oklahoma,Edmond,73003
Oklahoma,Midwest City,73110
Oklahoma,Del City,73115
Oklahoma,Bethany,73008
Oklahoma,Warr Acres,73122
Oklahoma,The Village,73120
Oklahoma,Nichols Hills,73116
Oklahoma,Spencer,73084
Oklahoma,Jones,73049
Oklahoma,Luther,73054
Oklahoma,Arcadia,73007
Oklahoma,Harrah,73045
Oklahoma,Choctaw,73020
Oklahoma,Valley Brook,73149
Oklahoma,Forest Park,73121
Oklahoma,Nichols Hills,73120
Oklahoma,Smith Village,73159
Oklahoma,Lake Aluma,73121
Okmulgee,Okmulgee,74447
Okmulgee,Henryetta,74437
Okmulgee,Morris,74445
Okmulgee,Beggs,74421
Okmulgee,Schulter,74460
Okmulgee,Dewar,74431
Okmulgee,Wilson,74457
Osage,Pawhuska,74056
Osage,Hominy,74035
Osage,Barnsdall,74002
Osage,Fairfax,74637
Osage,Skiatook,74070
Osage,Wynona,74084
Osage,Shidler,74652
Ottawa,Miami,74354
Ottawa,Commerce,74339
Ottawa,Fairland,74343
Ottawa,Picher,74360
Ottawa,Wyandotte,74370
Ottawa,Quapaw,74363
Ottawa,Afton,74331
Pawnee,Pawnee,74058
Pawnee,Cleveland,74020
Pawnee,Jennings,74038
Payne,Stillwater,74074
Payne,Cushing,74023
Payne,Perkins,74059
Payne,Ripley,74062
Payne,Glencoe,74032
Pittsburg,McAlester,74501
Pittsburg,Hartshorne,74547
Pittsburg,Krebs,74554
Pittsburg,Crowder,74430
Pittsburg,Canadian,74425
Pittsburg,Blanco,74528
Pittsburg,Haileyville,74546
Pittsburg,Kiowa,74553
Pontotoc,Ada,74820
Pontotoc,Fitzhugh,74843
Pontotoc,Francis,74844
Pontotoc,Roff,74865
Pottawatomie,Shawnee,74801
Pottawatomie,Tecumseh,74873
Pottawatomie,Bethel Acres,74820
Pottawatomie,McLoud,74851
Pottawatomie,Maud,74854
Pottawatomie,Earlsboro,74840
Pottawatomie,Asher,74826
Pottawatomie,Macomb,74852
Pottawatomie,Wanette,74878
Pottawatomie,St. Louis,74866
Pushmataha,Antlers,74523
Pushmataha,Clayton,74536
Roger Mills,Cheyenne,73628
Roger Mills,Hammon,73650
Roger Mills,Reydon,73660
Rogers,Claremore,74017
Rogers,Catoosa,74015
Rogers,Verdigris,74019
Rogers,Oologah,74053
Rogers,Inola,74036
Rogers,Chelsea,74016
Rogers,Foyil,74031
Rogers,Talala,74080
Seminole,Seminole,74868
Seminole,Wewoka,74884
Seminole,Bowlegs,74830
Seminole,Konawa,74849
Seminole,Maud,74854
Seminole,Sasakwa,74867
Sequoyah,Sallisaw,74955
Sequoyah,Muldrow,74948
Sequoyah,Roland,74954
Sequoyah,Gore,74435
Sequoyah,Vian,74962
Sequoyah,Gans,74936
Sequoyah,Marble City,74945
Stephens,Duncan,73533
Stephens,Marlow,73055
Stephens,Velma,73491
Stephens,Comanche,73529
Stephens,Bray,73012
Texas,Guymon,73942
Texas,Hooker,73945
Texas,Goodwell,73939
Texas,Texhoma,73949
Texas,Hardesty,73944
Tillman,Frederick,73542
Tillman,Davidson,73530
Tillman,Tipton,73570
Tillman,Grandfield,73546
Tillman,Loveland,73553
Tillman,Hollister,73551
Tulsa,Tulsa,74101
Tulsa,Broken Arrow,74011
Tulsa,Owasso,74055
Tulsa,Bixby,74008
Tulsa,Sand Springs,74063
Tulsa,Jenks,74037
Tulsa,Glenpool,74033
Tulsa,Collinsville,74021
Tulsa,Skiatook,74070
Tulsa,Sperry,74073
Tulsa,Turley,74126
Wagoner,Wagoner,74467
Wagoner,Coweta,74429
Wagoner,Porter,74454
Wagoner,Okay,74446
Wagoner,Tullahassee,74472
Washington,Bartlesville,74003
Washington,Dewey,74029
Washington,Copan,74022
Washington,Ramona,74061
Washington,Ochelata,74051
Washita,Cordell,73632
Washita,Burns Flat,73624
Washita,Bessie,73622
Washita,Canute,73626
Washita,Dill City,73641
Washita,Sentinel,73664
Woods,Alva,73717
Woods,Waynoka,73860
Woods,Freedom,73842
Woods,Capron,73717
Woodward,Woodward,73801
Woodward,Mooreland,73852
Woodward,Fort Supply,73841
Woodward,Mutual,73853
Woodward,Sharon,73857