County,City,ZIP
District of Columbia,Washington,20001
District of Columbia,Washington,20002
District of Columbia,Washington,20003
District of Columbia,Washington,20004
District of Columbia,Washington,20005
District of Columbia,Washington,20006
District of Columbia,Washington,20007
District of Columbia,Washington,20008
District of Columbia,Washington,20009
District of Columbia,Washington,20010
District of Columbia,Washington,20011
District of Columbia,Washington,20012
District of Columbia,Washington,20015
District of Columbia,Washington,20016
District of Columbia,Washington,20017
District of Columbia,Washington,20018
District of Columbia,Washington,20019
District of Columbia,Washington,20020
District of Columbia,Washington,20024
District of Columbia,Washington,20032
District of Columbia,Washington,20036
District of Columbia,Washington,20037
District of Columbia,Washington,20045
District of Columbia,Washington,20052
District of Columbia,Washington,20053
District of Columbia,Washington,20057
District of Columbia,Washington,20059
District of Columbia,Washington,20064
District of Columbia,Washington,20201
District of Columbia,Washington,20202
District of Columbia,Washington,20203
District of Columbia,Washington,20204
District of Columbia,Washington,20206
District of Columbia,Washington,20207
District of Columbia,Washington,20208
District of Columbia,Washington,20210
District of Columbia,Washington,20211
District of Columbia,Washington,20212
District of Columbia,Washington,20213
District of Columbia,Washington,20214
District of Columbia,Washington,20215
District of Columbia,Washington,20216
District of Columbia,Washington,20217
District of Columbia,Washington,20218
District of Columbia,Washington,20219
District of Columbia,Washington,20220
District of Columbia,Washington,20221
District of Columbia,Washington,20222
District of Columbia,Washington,20223
District of Columbia,Washington,20224
District of Columbia,Washington,20226
District of Columbia,Washington,20227
District of Columbia,Washington,20228
District of Columbia,Washington,20229
District of Columbia,Washington,20230
District of Columbia,Washington,20232
District of Columbia,Washington,20233
District of Columbia,Washington,20235
District of Columbia,Washington,20237
District of Columbia,Washington,20238
District of Columbia,Washington,20239
District of Columbia,Washington,20240
District of Columbia,Washington,20241
District of Columbia,Washington,20242
District of Columbia,Washington,20244
District of Columbia,Washington,20245
District of Columbia,Washington,20250
District of Columbia,Washington,20251
District of Columbia,Washington,20254
District of Columbia,Washington,20260
District of Columbia,Washington,20261
District of Columbia,Washington,20262
District of Columbia,Washington,20265
District of Columbia,Washington,20266
District of Columbia,Washington,20268
District of Columbia,Washington,20270
District of Columbia,Washington,20277
District of Columbia,Washington,20289
District of Columbia,Washington,20299
District of Columbia,Washington,20301
District of Columbia,Washington,20303
District of Columbia,Washington,20306
District of Columbia,Washington,20310
District of Columbia,Washington,20314
District of Columbia,Washington,20317
District of Columbia,Washington,20318
District of Columbia,Washington,20319
District of Columbia,Washington,20330
District of Columbia,Washington,20340
District of Columbia,Washington,20350
District of Columbia,Washington,20355
District of Columbia,Washington,20370
District of Columbia,Washington,20372
District of Columbia,Washington,20373
District of Columbia,Washington,20374
District of Columbia,Washington,20375
District of Columbia,Washington,20376
District of Columbia,Washington,20380
District of Columbia,Washington,20388
District of Columbia,Washington,20389
District of Columbia,Washington,20390
District of Columbia,Washington,20391
District of Columbia,Washington,20392
District of Columbia,Washington,20393
District of Columbia,Washington,20394
District of Columbia,Washington,20395
District of Columbia,Washington,20398
District of Columbia,Washington,20401
District of Columbia,Washington,20402
District of Columbia,Washington,20403
District of Columbia,Washington,20404
District of Columbia,Washington,20405
District of Columbia,Washington,20406
District of Columbia,Washington,20407
District of Columbia,Washington,20408
District of Columbia,Washington,20409
District of Columbia,Washington,20410
District of Columbia,Washington,20411
District of Columbia,Washington,20412
District of Columbia,Washington,20413
District of Columbia,Washington,20414
District of Columbia,Washington,20415
District of Columbia,Washington,20416
District of Columbia,Washington,20417
District of Columbia,Washington,20418
District of Columbia,Washington,20419
District of Columbia,Washington,20420
District of Columbia,Washington,20421
District of Columbia,Washington,20422
District of Columbia,Washington,20423
District of Columbia,Washington,20424
District of Columbia,Washington,20425
District of Columbia,Washington,20426
District of Columbia,Washington,20427
District of Columbia,Washington,20428
District of Columbia,Washington,20429
District of Columbia,Washington,20431
District of Columbia,Washington,20433
District of Columbia,Washington,20434
District of Columbia,Washington,20435
District of Columbia,Washington,20436
District of Columbia,Washington,20437
District of Columbia,Washington,20439
District of Columbia,Washington,20440
District of Columbia,Washington,20441
District of Columbia,Washington,20442
District of Columbia,Washington,20444
District of Columbia,Washington,20447
District of Columbia,Washington,20451
District of Columbia,Washington,20453
District of Columbia,Washington,20456
District of Columbia,Washington,20460
District of Columbia,Washington,20463
District of Columbia,Washington,20468
District of Columbia,Washington,20469
District of Columbia,Washington,20470
District of Columbia,Washington,20472
District of Columbia,Washington,20500
District of Columbia,Washington,20501
District of Columbia,Washington,20502
District of Columbia,Washington,20503
District of Columbia,Washington,20504
District of Columbia,Washington,20505
District of Columbia,Washington,20506
District of Columbia,Washington,20507
District of Columbia,Washington,20508
District of Columbia,Washington,20509
District of Columbia,Washington,20510
District of Columbia,Washington,20515
District of Columbia,Washington,20520
District of Columbia,Washington,20521
District of Columbia,Washington,20522
District of Columbia,Washington,20523
District of Columbia,Washington,20524
District of Columbia,Washington,20525
District of Columbia,Washington,20526
District of Columbia,Washington,20527
District of Columbia,Washington,20528
District of Columbia,Washington,20529
District of Columbia,Washington,20530
District of Columbia,Washington,20531
District of Columbia,Washington,20533
District of Columbia,Washington,20534
District of Columbia,Washington,20535
District of Columbia,Washington,20536
District of Columbia,Washington,20537
District of Columbia,Washington,20538
District of Columbia,Washington,20539
District of Columbia,Washington,20540
District of Columbia,Washington,20541
District of Columbia,Washington,20542
District of Columbia,Washington,20543
District of Columbia,Washington,20544
District of Columbia,Washington,20546
District of Columbia,Washington,20547
District of Columbia,Washington,20548
District of Columbia,Washington,20549
District of Columbia,Washington,20551
District of Columbia,Washington,20552
District of Columbia,Washington,20553
District of Columbia,Washington,20554
District of Columbia,Washington,20555
District of Columbia,Washington,20557
District of Columbia,Washington,20559
District of Columbia,Washington,20560
District of Columbia,Washington,20565
District of Columbia,Washington,20566
District of Columbia,Washington,20570
District of Columbia,Washington,20571
District of Columbia,Washington,20572
District of Columbia,Washington,20573
District of Columbia,Washington,20575
District of Columbia,Washington,20576
District of Columbia,Washington,20577
District of Columbia,Washington,20578
District of Columbia,Washington,20579
District of Columbia,Washington,20580
District of Columbia,Washington,20581
District of Columbia,Washington,20585
District of Columbia,Washington,20586
District of Columbia,Washington,20590
District of Columbia,Washington,20591
District of Columbia,Washington,20593
District of Columbia,Washington,20594
